{
  "Code": 0,
  "Data": [
    {
      "regionId": 35,
      "regionName": "北京市-直辖市",
      "parentId": 1,
      "parentIds": ",0,5000,1,35,",
      "type": 101,
      "remark": "城市",
      "jianpin": "BJ",
      "postCode": "100000",
      "districtSeq": 110100,
      "code": "0",
      "sort": 1
    },
    {
      "regionId": 36,
      "regionName": "天津市-直辖市",
      "parentId": 2,
      "parentIds": ",0,5000,2,36,",
      "type": 101,
      "remark": "城市",
      "jianpin": "TJ",
      "postCode": "300000",
      "districtSeq": 120100,
      "code": "0",
      "sort": 1
    },
    {
      "regionId": 37,
      "regionName": "上海市-直辖市",
      "parentId": 9,
      "parentIds": ",0,5000,9,37,",
      "type": 101,
      "remark": "城市",
      "jianpin": "SH",
      "postCode": "200000",
      "districtSeq": 310100,
      "code": "0",
      "sort": 1
    },
    {
      "regionId": 38,
      "regionName": "重庆市-直辖市",
      "parentId": 27,
      "parentIds": ",0,5000,27,38,",
      "type": 101,
      "remark": "城市",
      "jianpin": "CQ",
      "postCode": "404100",
      "districtSeq": 500100,
      "code": "0",
      "sort": 1
    },
    {
      "regionId": 39,
      "regionName": "邯郸市",
      "parentId": 3,
      "parentIds": ",0,5000,3,39,",
      "type": 101,
      "remark": "城市",
      "jianpin": "HDS",
      "postCode": "56000",
      "districtSeq": 130400,
      "code": "0",
      "sort": 1
    },
    {
      "regionId": 40,
      "regionName": "石家庄市",
      "parentId": 3,
      "parentIds": ",0,5000,3,40,",
      "type": 101,
      "remark": "城市",
      "jianpin": "SJZ",
      "postCode": "50000",
      "districtSeq": 130100,
      "code": "0",
      "sort": 1
    },
    {
      "regionId": 41,
      "regionName": "保定市",
      "parentId": 3,
      "parentIds": ",0,5000,3,41,",
      "type": 101,
      "remark": "城市",
      "jianpin": "BDS",
      "postCode": "71000",
      "districtSeq": 130600,
      "code": "0",
      "sort": 1
    },
    {
      "regionId": 42,
      "regionName": "张家口市",
      "parentId": 3,
      "parentIds": ",0,5000,3,42,",
      "type": 101,
      "remark": "城市",
      "jianpin": "ZJK",
      "postCode": "75000",
      "districtSeq": 130700,
      "code": "0",
      "sort": 1
    },
    {
      "regionId": 43,
      "regionName": "承德市",
      "parentId": 3,
      "parentIds": ",0,5000,3,43,",
      "type": 101,
      "remark": "城市",
      "jianpin": "CED",
      "postCode": "67000",
      "districtSeq": 130800,
      "code": "0",
      "sort": 1
    },
    {
      "regionId": 44,
      "regionName": "唐山市",
      "parentId": 3,
      "parentIds": ",0,5000,3,44,",
      "type": 101,
      "remark": "城市",
      "jianpin": "TGS",
      "postCode": "63000",
      "districtSeq": 130200,
      "code": "0",
      "sort": 1
    },
    {
      "regionId": 45,
      "regionName": "廊坊市",
      "parentId": 3,
      "parentIds": ",0,5000,3,45,",
      "type": 101,
      "remark": "城市",
      "jianpin": "LF",
      "postCode": "65000",
      "districtSeq": 131000,
      "code": "0",
      "sort": 1
    },
    {
      "regionId": 46,
      "regionName": "沧州市",
      "parentId": 3,
      "parentIds": ",0,5000,3,46,",
      "type": 101,
      "remark": "城市",
      "jianpin": "CGZ",
      "postCode": "61000",
      "districtSeq": 130900,
      "code": "0",
      "sort": 1
    },
    {
      "regionId": 47,
      "regionName": "衡水市",
      "parentId": 3,
      "parentIds": ",0,5000,3,47,",
      "type": 101,
      "remark": "城市",
      "jianpin": "HGS",
      "postCode": "53000",
      "districtSeq": 131100,
      "code": "0",
      "sort": 1
    },
    {
      "regionId": 48,
      "regionName": "邢台市",
      "parentId": 3,
      "parentIds": ",0,5000,3,48,",
      "type": 101,
      "remark": "城市",
      "jianpin": "XTS",
      "postCode": "54000",
      "districtSeq": 130500,
      "code": "0",
      "sort": 1
    },
    {
      "regionId": 49,
      "regionName": "秦皇岛市",
      "parentId": 3,
      "parentIds": ",0,5000,3,49,",
      "type": 101,
      "remark": "城市",
      "jianpin": "SHP",
      "postCode": "66000",
      "districtSeq": 130300,
      "code": "0",
      "sort": 1
    },
    {
      "regionId": 50,
      "regionName": "朔州市",
      "parentId": 4,
      "parentIds": ",0,5000,4,50,",
      "type": 101,
      "remark": "城市",
      "jianpin": "SZJ",
      "postCode": "36000",
      "districtSeq": 140600,
      "code": "0",
      "sort": 1
    },
    {
      "regionId": 51,
      "regionName": "忻州市",
      "parentId": 4,
      "parentIds": ",0,5000,4,51,",
      "type": 101,
      "remark": "城市",
      "jianpin": "XIZ",
      "postCode": "34000",
      "districtSeq": 140900,
      "code": "0",
      "sort": 1
    },
    {
      "regionId": 52,
      "regionName": "太原市",
      "parentId": 4,
      "parentIds": ",0,5000,4,52,",
      "type": 101,
      "remark": "城市",
      "jianpin": "TY",
      "postCode": "30000",
      "districtSeq": 140100,
      "code": "0",
      "sort": 1
    },
    {
      "regionId": 53,
      "regionName": "大同市",
      "parentId": 4,
      "parentIds": ",0,5000,4,53,",
      "type": 101,
      "remark": "城市",
      "jianpin": "DTG",
      "postCode": "37000",
      "districtSeq": 140200,
      "code": "0",
      "sort": 1
    },
    {
      "regionId": 54,
      "regionName": "阳泉市",
      "parentId": 4,
      "parentIds": ",0,5000,4,54,",
      "type": 101,
      "remark": "城市",
      "jianpin": "YQS",
      "postCode": "45000",
      "districtSeq": 140300,
      "code": "0",
      "sort": 1
    },
    {
      "regionId": 55,
      "regionName": "晋中市",
      "parentId": 4,
      "parentIds": ",0,5000,4,55,",
      "type": 101,
      "remark": "城市",
      "jianpin": "JIZ",
      "postCode": "30600",
      "districtSeq": 140700,
      "code": "0",
      "sort": 1
    },
    {
      "regionId": 56,
      "regionName": "长治市",
      "parentId": 4,
      "parentIds": ",0,5000,4,56,",
      "type": 101,
      "remark": "城市",
      "jianpin": "CZI",
      "postCode": "46000",
      "districtSeq": 140400,
      "code": "0",
      "sort": 1
    },
    {
      "regionId": 57,
      "regionName": "晋城市",
      "parentId": 4,
      "parentIds": ",0,5000,4,57,",
      "type": 101,
      "remark": "城市",
      "jianpin": "JCG",
      "postCode": "48000",
      "districtSeq": 140500,
      "code": "0",
      "sort": 1
    },
    {
      "regionId": 58,
      "regionName": "临汾市",
      "parentId": 4,
      "parentIds": ",0,5000,4,58,",
      "type": 101,
      "remark": "城市",
      "jianpin": "LFE",
      "postCode": "41000",
      "districtSeq": 141000,
      "code": "0",
      "sort": 1
    },
    {
      "regionId": 59,
      "regionName": "吕梁市",
      "parentId": 4,
      "parentIds": ",0,5000,4,59,",
      "type": 101,
      "remark": "城市",
      "jianpin": "LLA",
      "postCode": "33000",
      "districtSeq": 141100,
      "code": "0",
      "sort": 1
    },
    {
      "regionId": 60,
      "regionName": "运城市",
      "parentId": 4,
      "parentIds": ",0,5000,4,60,",
      "type": 101,
      "remark": "城市",
      "jianpin": "YUC",
      "postCode": "44000",
      "districtSeq": 140800,
      "code": "0",
      "sort": 1
    },
    {
      "regionId": 61,
      "regionName": "沈阳市",
      "parentId": 6,
      "parentIds": ",0,5000,6,61,",
      "type": 101,
      "remark": "城市",
      "jianpin": "SY",
      "postCode": "110000",
      "districtSeq": 210100,
      "code": "0",
      "sort": 1
    },
    {
      "regionId": 62,
      "regionName": "铁岭市",
      "parentId": 6,
      "parentIds": ",0,5000,6,62,",
      "type": 101,
      "remark": "城市",
      "jianpin": "TLS",
      "postCode": "112000",
      "districtSeq": 211200,
      "code": "0",
      "sort": 1
    },
    {
      "regionId": 63,
      "regionName": "大连市",
      "parentId": 6,
      "parentIds": ",0,5000,6,63,",
      "type": 101,
      "remark": "城市",
      "jianpin": "DL",
      "postCode": "116000",
      "districtSeq": 210200,
      "code": "0",
      "sort": 1
    },
    {
      "regionId": 64,
      "regionName": "鞍山市",
      "parentId": 6,
      "parentIds": ",0,5000,6,64,",
      "type": 101,
      "remark": "城市",
      "jianpin": "ASN",
      "postCode": "114000",
      "districtSeq": 210300,
      "code": "0",
      "sort": 1
    },
    {
      "regionId": 65,
      "regionName": "抚顺市",
      "parentId": 6,
      "parentIds": ",0,5000,6,65,",
      "type": 101,
      "remark": "城市",
      "jianpin": "FSN",
      "postCode": "113000",
      "districtSeq": 210400,
      "code": "0",
      "sort": 1
    },
    {
      "regionId": 66,
      "regionName": "本溪市",
      "parentId": 6,
      "parentIds": ",0,5000,6,66,",
      "type": 101,
      "remark": "城市",
      "jianpin": "BXS",
      "postCode": "117000",
      "districtSeq": 210500,
      "code": "0",
      "sort": 1
    },
    {
      "regionId": 67,
      "regionName": "丹东市",
      "parentId": 6,
      "parentIds": ",0,5000,6,67,",
      "type": 101,
      "remark": "城市",
      "jianpin": "DDG",
      "postCode": "118000",
      "districtSeq": 210600,
      "code": "0",
      "sort": 1
    },
    {
      "regionId": 68,
      "regionName": "锦州市",
      "parentId": 6,
      "parentIds": ",0,5000,6,68,",
      "type": 101,
      "remark": "城市",
      "jianpin": "JNZ",
      "postCode": "121000",
      "districtSeq": 210700,
      "code": "0",
      "sort": 1
    },
    {
      "regionId": 69,
      "regionName": "营口市",
      "parentId": 6,
      "parentIds": ",0,5000,6,69,",
      "type": 101,
      "remark": "城市",
      "jianpin": "YIK",
      "postCode": "115000",
      "districtSeq": 210800,
      "code": "0",
      "sort": 1
    },
    {
      "regionId": 70,
      "regionName": "阜新市",
      "parentId": 6,
      "parentIds": ",0,5000,6,70,",
      "type": 101,
      "remark": "城市",
      "jianpin": "FXS",
      "postCode": "123000",
      "districtSeq": 210900,
      "code": "0",
      "sort": 1
    },
    {
      "regionId": 71,
      "regionName": "辽阳市",
      "parentId": 6,
      "parentIds": ",0,5000,6,71,",
      "type": 101,
      "remark": "城市",
      "jianpin": "LYL",
      "postCode": "111000",
      "districtSeq": 211000,
      "code": "0",
      "sort": 1
    },
    {
      "regionId": 72,
      "regionName": "朝阳市",
      "parentId": 6,
      "parentIds": ",0,5000,6,72,",
      "type": 101,
      "remark": "城市",
      "jianpin": "CYS",
      "postCode": "122000",
      "districtSeq": 211300,
      "code": "0",
      "sort": 1
    },
    {
      "regionId": 73,
      "regionName": "盘锦市",
      "parentId": 6,
      "parentIds": ",0,5000,6,73,",
      "type": 101,
      "remark": "城市",
      "jianpin": "PJS",
      "postCode": "124000",
      "districtSeq": 211100,
      "code": "0",
      "sort": 1
    },
    {
      "regionId": 74,
      "regionName": "葫芦岛市",
      "parentId": 6,
      "parentIds": ",0,5000,6,74,",
      "type": 101,
      "remark": "城市",
      "jianpin": "HLD",
      "postCode": "125000",
      "districtSeq": 211400,
      "code": "0",
      "sort": 1
    },
    {
      "regionId": 75,
      "regionName": "长春市",
      "parentId": 7,
      "parentIds": ",0,5000,7,75,",
      "type": 101,
      "remark": "城市",
      "jianpin": "CC",
      "postCode": "130000",
      "districtSeq": 220100,
      "code": "0",
      "sort": 1
    },
    {
      "regionId": 76,
      "regionName": "吉林市",
      "parentId": 7,
      "parentIds": ",0,5000,7,76,",
      "type": 101,
      "remark": "城市",
      "jianpin": "JLS",
      "postCode": "132000",
      "districtSeq": 220200,
      "code": "0",
      "sort": 1
    },
    {
      "regionId": 77,
      "regionName": "延边朝鲜族自治州",
      "parentId": 7,
      "parentIds": ",0,5000,7,77,",
      "type": 101,
      "remark": "城市",
      "jianpin": "YBZ",
      "postCode": "133000",
      "districtSeq": 222400,
      "code": "0",
      "sort": 1
    },
    {
      "regionId": 78,
      "regionName": "四平市",
      "parentId": 7,
      "parentIds": ",0,5000,7,78,",
      "type": 101,
      "remark": "城市",
      "jianpin": "SPS",
      "postCode": "136000",
      "districtSeq": 220300,
      "code": "0",
      "sort": 1
    },
    {
      "regionId": 79,
      "regionName": "通化市",
      "parentId": 7,
      "parentIds": ",0,5000,7,79,",
      "type": 101,
      "remark": "城市",
      "jianpin": "THS",
      "postCode": "134000",
      "districtSeq": 220500,
      "code": "0",
      "sort": 1
    },
    {
      "regionId": 80,
      "regionName": "白城市",
      "parentId": 7,
      "parentIds": ",0,5000,7,80,",
      "type": 101,
      "remark": "城市",
      "jianpin": "BCS",
      "postCode": "137000",
      "districtSeq": 220800,
      "code": "0",
      "sort": 1
    },
    {
      "regionId": 81,
      "regionName": "辽源市",
      "parentId": 7,
      "parentIds": ",0,5000,7,81,",
      "type": 101,
      "remark": "城市",
      "jianpin": "LYH",
      "postCode": "136200",
      "districtSeq": 220400,
      "code": "0",
      "sort": 1
    },
    {
      "regionId": 82,
      "regionName": "松原市",
      "parentId": 7,
      "parentIds": ",0,5000,7,82,",
      "type": 101,
      "remark": "城市",
      "jianpin": "SYU",
      "postCode": "138000",
      "districtSeq": 220700,
      "code": "0",
      "sort": 1
    },
    {
      "regionId": 83,
      "regionName": "白山市",
      "parentId": 7,
      "parentIds": ",0,5000,7,83,",
      "type": 101,
      "remark": "城市",
      "jianpin": "BSN",
      "postCode": "134300",
      "districtSeq": 220600,
      "code": "0",
      "sort": 1
    },
    {
      "regionId": 84,
      "regionName": "哈尔滨市",
      "parentId": 8,
      "parentIds": ",0,5000,8,84,",
      "type": 101,
      "remark": "城市",
      "jianpin": "HRB",
      "postCode": "150000",
      "districtSeq": 230100,
      "code": "0",
      "sort": 1
    },
    {
      "regionId": 85,
      "regionName": "齐齐哈尔市",
      "parentId": 8,
      "parentIds": ",0,5000,8,85,",
      "type": 101,
      "remark": "城市",
      "jianpin": "NDG",
      "postCode": "161000",
      "districtSeq": 230200,
      "code": "0",
      "sort": 1
    },
    {
      "regionId": 86,
      "regionName": "鸡西市",
      "parentId": 8,
      "parentIds": ",0,5000,8,86,",
      "type": 101,
      "remark": "城市",
      "jianpin": "JXI",
      "postCode": "158100",
      "districtSeq": 230300,
      "code": "0",
      "sort": 1
    },
    {
      "regionId": 87,
      "regionName": "牡丹江市",
      "parentId": 8,
      "parentIds": ",0,5000,8,87,",
      "type": 101,
      "remark": "城市",
      "jianpin": "MDG",
      "postCode": "157000",
      "districtSeq": 231000,
      "code": "0",
      "sort": 1
    },
    {
      "regionId": 88,
      "regionName": "七台河市",
      "parentId": 8,
      "parentIds": ",0,5000,8,88,",
      "type": 101,
      "remark": "城市",
      "jianpin": "QTH",
      "postCode": "154600",
      "districtSeq": 230900,
      "code": "0",
      "sort": 1
    },
    {
      "regionId": 89,
      "regionName": "佳木斯市",
      "parentId": 8,
      "parentIds": ",0,5000,8,89,",
      "type": 101,
      "remark": "城市",
      "jianpin": "JMU",
      "postCode": "154000",
      "districtSeq": 230800,
      "code": "0",
      "sort": 1
    },
    {
      "regionId": 90,
      "regionName": "鹤岗市",
      "parentId": 8,
      "parentIds": ",0,5000,8,90,",
      "type": 101,
      "remark": "城市",
      "jianpin": "HEG",
      "postCode": "154100",
      "districtSeq": 230400,
      "code": "0",
      "sort": 1
    },
    {
      "regionId": 91,
      "regionName": "双鸭山市",
      "parentId": 8,
      "parentIds": ",0,5000,8,91,",
      "type": 101,
      "remark": "城市",
      "jianpin": "SYS",
      "postCode": "155100",
      "districtSeq": 230500,
      "code": "0",
      "sort": 1
    },
    {
      "regionId": 92,
      "regionName": "绥化市",
      "parentId": 8,
      "parentIds": ",0,5000,8,92,",
      "type": 101,
      "remark": "城市",
      "jianpin": "SHA",
      "postCode": "152000",
      "districtSeq": 231200,
      "code": "0",
      "sort": 1
    },
    {
      "regionId": 93,
      "regionName": "黑河市",
      "parentId": 8,
      "parentIds": ",0,5000,8,93,",
      "type": 101,
      "remark": "城市",
      "jianpin": "HEK",
      "postCode": "164300",
      "districtSeq": 231100,
      "code": "0",
      "sort": 1
    },
    {
      "regionId": 94,
      "regionName": "大兴安岭地区",
      "parentId": 8,
      "parentIds": ",0,5000,8,94,",
      "type": 101,
      "remark": "城市",
      "jianpin": "DHL",
      "postCode": "165000",
      "districtSeq": 232700,
      "code": "0",
      "sort": 1
    },
    {
      "regionId": 95,
      "regionName": "伊春市",
      "parentId": 8,
      "parentIds": ",0,5000,8,95,",
      "type": 101,
      "remark": "城市",
      "jianpin": "YCH",
      "postCode": "153000",
      "districtSeq": 230700,
      "code": "0",
      "sort": 1
    },
    {
      "regionId": 96,
      "regionName": "大庆市",
      "parentId": 8,
      "parentIds": ",0,5000,8,96,",
      "type": 101,
      "remark": "城市",
      "jianpin": "DQG",
      "postCode": "163000",
      "districtSeq": 230600,
      "code": "0",
      "sort": 1
    },
    {
      "regionId": 97,
      "regionName": "南京市",
      "parentId": 10,
      "parentIds": ",0,5000,10,97,",
      "type": 101,
      "remark": "城市",
      "jianpin": "NJ",
      "postCode": "210000",
      "districtSeq": 320100,
      "code": "0",
      "sort": 1
    },
    {
      "regionId": 98,
      "regionName": "无锡市",
      "parentId": 10,
      "parentIds": ",0,5000,10,98,",
      "type": 101,
      "remark": "城市",
      "jianpin": "WX",
      "postCode": "214000",
      "districtSeq": 320200,
      "code": "0",
      "sort": 1
    },
    {
      "regionId": 99,
      "regionName": "镇江市",
      "parentId": 10,
      "parentIds": ",0,5000,10,99,",
      "type": 101,
      "remark": "城市",
      "jianpin": "ZHE",
      "postCode": "212000",
      "districtSeq": 321100,
      "code": "0",
      "sort": 1
    },
    {
      "regionId": 100,
      "regionName": "苏州市",
      "parentId": 10,
      "parentIds": ",0,5000,10,100,",
      "type": 101,
      "remark": "城市",
      "jianpin": "SUZ",
      "postCode": "215000",
      "districtSeq": 320500,
      "code": "0",
      "sort": 1
    },
    {
      "regionId": 101,
      "regionName": "南通市",
      "parentId": 10,
      "parentIds": ",0,5000,10,101,",
      "type": 101,
      "remark": "城市",
      "jianpin": "NTG",
      "postCode": "226000",
      "districtSeq": 320600,
      "code": "0",
      "sort": 1
    },
    {
      "regionId": 102,
      "regionName": "扬州市",
      "parentId": 10,
      "parentIds": ",0,5000,10,102,",
      "type": 101,
      "remark": "城市",
      "jianpin": "YZH",
      "postCode": "225000",
      "districtSeq": 321000,
      "code": "0",
      "sort": 1
    },
    {
      "regionId": 103,
      "regionName": "盐城市",
      "parentId": 10,
      "parentIds": ",0,5000,10,103,",
      "type": 101,
      "remark": "城市",
      "jianpin": "YC",
      "postCode": "224000",
      "districtSeq": 320900,
      "code": "0",
      "sort": 1
    },
    {
      "regionId": 104,
      "regionName": "徐州市",
      "parentId": 10,
      "parentIds": ",0,5000,10,104,",
      "type": 101,
      "remark": "城市",
      "jianpin": "XUZ",
      "postCode": "221000",
      "districtSeq": 320300,
      "code": "0",
      "sort": 1
    },
    {
      "regionId": 105,
      "regionName": "淮安市",
      "parentId": 10,
      "parentIds": ",0,5000,10,105,",
      "type": 101,
      "remark": "城市",
      "jianpin": "HAN",
      "postCode": "223001",
      "districtSeq": 320800,
      "code": "0",
      "sort": 1
    },
    {
      "regionId": 106,
      "regionName": "连云港市",
      "parentId": 10,
      "parentIds": ",0,5000,10,106,",
      "type": 101,
      "remark": "城市",
      "jianpin": "LYG",
      "postCode": "222000",
      "districtSeq": 320700,
      "code": "0",
      "sort": 1
    },
    {
      "regionId": 107,
      "regionName": "常州市",
      "parentId": 10,
      "parentIds": ",0,5000,10,107,",
      "type": 101,
      "remark": "城市",
      "jianpin": "CAZ",
      "postCode": "213000",
      "districtSeq": 320400,
      "code": "0",
      "sort": 1
    },
    {
      "regionId": 108,
      "regionName": "泰州市",
      "parentId": 10,
      "parentIds": ",0,5000,10,108,",
      "type": 101,
      "remark": "城市",
      "jianpin": "TAZ",
      "postCode": "225300",
      "districtSeq": 321200,
      "code": "0",
      "sort": 1
    },
    {
      "regionId": 109,
      "regionName": "宿迁市",
      "parentId": 10,
      "parentIds": ",0,5000,10,109,",
      "type": 101,
      "remark": "城市",
      "jianpin": "SUQ",
      "postCode": "223800",
      "districtSeq": 321300,
      "code": "0",
      "sort": 1
    },
    {
      "regionId": 110,
      "regionName": "舟山市",
      "parentId": 11,
      "parentIds": ",0,5000,11,110,",
      "type": 101,
      "remark": "城市",
      "jianpin": "ZOS",
      "postCode": "316000",
      "districtSeq": 330900,
      "code": "0",
      "sort": 1
    },
    {
      "regionId": 111,
      "regionName": "衢州市",
      "parentId": 11,
      "parentIds": ",0,5000,11,111,",
      "type": 101,
      "remark": "城市",
      "jianpin": "QZS",
      "postCode": "324000",
      "districtSeq": 330800,
      "code": "0",
      "sort": 1
    },
    {
      "regionId": 112,
      "regionName": "杭州市",
      "parentId": 11,
      "parentIds": ",0,5000,11,112,",
      "type": 101,
      "remark": "城市",
      "jianpin": "HZ",
      "postCode": "310000",
      "districtSeq": 330100,
      "code": "0",
      "sort": 1
    },
    {
      "regionId": 113,
      "regionName": "湖州市",
      "parentId": 11,
      "parentIds": ",0,5000,11,113,",
      "type": 101,
      "remark": "城市",
      "jianpin": "HUZ",
      "postCode": "313000",
      "districtSeq": 330500,
      "code": "0",
      "sort": 1
    },
    {
      "regionId": 114,
      "regionName": "嘉兴市",
      "parentId": 11,
      "parentIds": ",0,5000,11,114,",
      "type": 101,
      "remark": "城市",
      "jianpin": "JIX",
      "postCode": "314000",
      "districtSeq": 330400,
      "code": "0",
      "sort": 1
    },
    {
      "regionId": 115,
      "regionName": "宁波市",
      "parentId": 11,
      "parentIds": ",0,5000,11,115,",
      "type": 101,
      "remark": "城市",
      "jianpin": "NB",
      "postCode": "315000",
      "districtSeq": 330200,
      "code": "0",
      "sort": 1
    },
    {
      "regionId": 116,
      "regionName": "绍兴市",
      "parentId": 11,
      "parentIds": ",0,5000,11,116,",
      "type": 101,
      "remark": "城市",
      "jianpin": "SXG",
      "postCode": "312000",
      "districtSeq": 330600,
      "code": "0",
      "sort": 1
    },
    {
      "regionId": 117,
      "regionName": "温州市",
      "parentId": 11,
      "parentIds": ",0,5000,11,117,",
      "type": 101,
      "remark": "城市",
      "jianpin": "WZ",
      "postCode": "325000",
      "districtSeq": 330300,
      "code": "0",
      "sort": 1
    },
    {
      "regionId": 118,
      "regionName": "丽水市",
      "parentId": 11,
      "parentIds": ",0,5000,11,118,",
      "type": 101,
      "remark": "城市",
      "jianpin": "LIS",
      "postCode": "323000",
      "districtSeq": 331100,
      "code": "0",
      "sort": 1
    },
    {
      "regionId": 119,
      "regionName": "金华市",
      "parentId": 11,
      "parentIds": ",0,5000,11,119,",
      "type": 101,
      "remark": "城市",
      "jianpin": "JHA",
      "postCode": "321000",
      "districtSeq": 330700,
      "code": "0",
      "sort": 1
    },
    {
      "regionId": 120,
      "regionName": "台州市",
      "parentId": 11,
      "parentIds": ",0,5000,11,120,",
      "type": 101,
      "remark": "城市",
      "jianpin": "TZZ",
      "postCode": "318000",
      "districtSeq": 331000,
      "code": "0",
      "sort": 1
    },
    {
      "regionId": 121,
      "regionName": "合肥市",
      "parentId": 12,
      "parentIds": ",0,5000,12,121,",
      "type": 101,
      "remark": "城市",
      "jianpin": "HF",
      "postCode": "230000",
      "districtSeq": 340100,
      "code": "0",
      "sort": 1
    },
    {
      "regionId": 122,
      "regionName": "芜湖市",
      "parentId": 12,
      "parentIds": ",0,5000,12,122,",
      "type": 101,
      "remark": "城市",
      "jianpin": "WUH",
      "postCode": "241000",
      "districtSeq": 340200,
      "code": "0",
      "sort": 1
    },
    {
      "regionId": 123,
      "regionName": "蚌埠市",
      "parentId": 12,
      "parentIds": ",0,5000,12,123,",
      "type": 101,
      "remark": "城市",
      "jianpin": "BBU",
      "postCode": "233000",
      "districtSeq": 340300,
      "code": "0",
      "sort": 1
    },
    {
      "regionId": 124,
      "regionName": "淮南市",
      "parentId": 12,
      "parentIds": ",0,5000,12,124,",
      "type": 101,
      "remark": "城市",
      "jianpin": "HNS",
      "postCode": "232000",
      "districtSeq": 340400,
      "code": "0",
      "sort": 1
    },
    {
      "regionId": 125,
      "regionName": "马鞍山市",
      "parentId": 12,
      "parentIds": ",0,5000,12,125,",
      "type": 101,
      "remark": "城市",
      "jianpin": "MAA",
      "postCode": "243000",
      "districtSeq": 340500,
      "code": "0",
      "sort": 1
    },
    {
      "regionId": 126,
      "regionName": "淮北市",
      "parentId": 12,
      "parentIds": ",0,5000,12,126,",
      "type": 101,
      "remark": "城市",
      "jianpin": "HBE",
      "postCode": "235000",
      "districtSeq": 340600,
      "code": "0",
      "sort": 1
    },
    {
      "regionId": 127,
      "regionName": "铜陵市",
      "parentId": 12,
      "parentIds": ",0,5000,12,127,",
      "type": 101,
      "remark": "城市",
      "jianpin": "TOL",
      "postCode": "244000",
      "districtSeq": 340700,
      "code": "0",
      "sort": 1
    },
    {
      "regionId": 128,
      "regionName": "安庆市",
      "parentId": 12,
      "parentIds": ",0,5000,12,128,",
      "type": 101,
      "remark": "城市",
      "jianpin": "AQG",
      "postCode": "246000",
      "districtSeq": 340800,
      "code": "0",
      "sort": 1
    },
    {
      "regionId": 129,
      "regionName": "黄山市",
      "parentId": 12,
      "parentIds": ",0,5000,12,129,",
      "type": 101,
      "remark": "城市",
      "jianpin": "HS",
      "postCode": "242700",
      "districtSeq": 341000,
      "code": "0",
      "sort": 1
    },
    {
      "regionId": 130,
      "regionName": "滁州市",
      "parentId": 12,
      "parentIds": ",0,5000,12,130,",
      "type": 101,
      "remark": "城市",
      "jianpin": "CUZ",
      "postCode": "239000",
      "districtSeq": 341100,
      "code": "0",
      "sort": 1
    },
    {
      "regionId": 131,
      "regionName": "阜阳市",
      "parentId": 12,
      "parentIds": ",0,5000,12,131,",
      "type": 101,
      "remark": "城市",
      "jianpin": "FYS",
      "postCode": "236000",
      "districtSeq": 341200,
      "code": "0",
      "sort": 1
    },
    {
      "regionId": 132,
      "regionName": "宿州市",
      "parentId": 12,
      "parentIds": ",0,5000,12,132,",
      "type": 101,
      "remark": "城市",
      "jianpin": "SZU",
      "postCode": "234000",
      "districtSeq": 341300,
      "code": "0",
      "sort": 1
    },
    {
      "regionId": 134,
      "regionName": "六安市",
      "parentId": 12,
      "parentIds": ",0,5000,12,134,",
      "type": 101,
      "remark": "城市",
      "jianpin": "LAN",
      "postCode": "237000",
      "districtSeq": 341500,
      "code": "0",
      "sort": 1
    },
    {
      "regionId": 135,
      "regionName": "亳州市",
      "parentId": 12,
      "parentIds": ",0,5000,12,135,",
      "type": 101,
      "remark": "城市",
      "jianpin": "HAZ",
      "postCode": "236000",
      "districtSeq": 341600,
      "code": "0",
      "sort": 1
    },
    {
      "regionId": 136,
      "regionName": "池州市",
      "parentId": 12,
      "parentIds": ",0,5000,12,136,",
      "type": 101,
      "remark": "城市",
      "jianpin": "CZ",
      "postCode": "247100",
      "districtSeq": 341700,
      "code": "0",
      "sort": 1
    },
    {
      "regionId": 137,
      "regionName": "宣城市",
      "parentId": 12,
      "parentIds": ",0,5000,12,137,",
      "type": 101,
      "remark": "城市",
      "jianpin": "XCG",
      "postCode": "242000",
      "districtSeq": 341800,
      "code": "0",
      "sort": 1
    },
    {
      "regionId": 138,
      "regionName": "福州市",
      "parentId": 13,
      "parentIds": ",0,5000,13,138,",
      "type": 101,
      "remark": "城市",
      "jianpin": "FZ",
      "postCode": "350000",
      "districtSeq": 350100,
      "code": "0",
      "sort": 1
    },
    {
      "regionId": 139,
      "regionName": "厦门市",
      "parentId": 13,
      "parentIds": ",0,5000,13,139,",
      "type": 101,
      "remark": "城市",
      "jianpin": "XM",
      "postCode": "361000",
      "districtSeq": 350200,
      "code": "0",
      "sort": 1
    },
    {
      "regionId": 140,
      "regionName": "宁德市",
      "parentId": 13,
      "parentIds": ",0,5000,13,140,",
      "type": 101,
      "remark": "城市",
      "jianpin": "ND",
      "postCode": "352000",
      "districtSeq": 350900,
      "code": "0",
      "sort": 1
    },
    {
      "regionId": 141,
      "regionName": "莆田市",
      "parentId": 13,
      "parentIds": ",0,5000,13,141,",
      "type": 101,
      "remark": "城市",
      "jianpin": "PUT",
      "postCode": "351100",
      "districtSeq": 350300,
      "code": "0",
      "sort": 1
    },
    {
      "regionId": 144,
      "regionName": "龙岩市",
      "parentId": 13,
      "parentIds": ",0,5000,13,144,",
      "type": 101,
      "remark": "城市",
      "jianpin": "LYF",
      "postCode": "364000",
      "districtSeq": 350800,
      "code": "0",
      "sort": 1
    },
    {
      "regionId": 145,
      "regionName": "三明市",
      "parentId": 13,
      "parentIds": ",0,5000,13,145,",
      "type": 101,
      "remark": "城市",
      "jianpin": "SMS",
      "postCode": "365000",
      "districtSeq": 350400,
      "code": "0",
      "sort": 1
    },
    {
      "regionId": 146,
      "regionName": "南平市",
      "parentId": 13,
      "parentIds": ",0,5000,13,146,",
      "type": 101,
      "remark": "城市",
      "jianpin": "NPS",
      "postCode": "353000",
      "districtSeq": 350700,
      "code": "0",
      "sort": 1
    },
    {
      "regionId": 147,
      "regionName": "鹰潭市",
      "parentId": 14,
      "parentIds": ",0,5000,14,147,",
      "type": 101,
      "remark": "城市",
      "jianpin": "YTA",
      "postCode": "335000",
      "districtSeq": 360600,
      "code": "0",
      "sort": 1
    },
    {
      "regionId": 148,
      "regionName": "新余市",
      "parentId": 14,
      "parentIds": ",0,5000,14,148,",
      "type": 101,
      "remark": "城市",
      "jianpin": "XYU",
      "postCode": "338000",
      "districtSeq": 360500,
      "code": "0",
      "sort": 1
    },
    {
      "regionId": 149,
      "regionName": "南昌市",
      "parentId": 14,
      "parentIds": ",0,5000,14,149,",
      "type": 101,
      "remark": "城市",
      "jianpin": "NC",
      "postCode": "330000",
      "districtSeq": 360100,
      "code": "0",
      "sort": 1
    },
    {
      "regionId": 150,
      "regionName": "九江市",
      "parentId": 14,
      "parentIds": ",0,5000,14,150,",
      "type": 101,
      "remark": "城市",
      "jianpin": "JIU",
      "postCode": "332000",
      "districtSeq": 360400,
      "code": "0",
      "sort": 1
    },
    {
      "regionId": 151,
      "regionName": "上饶市",
      "parentId": 14,
      "parentIds": ",0,5000,14,151,",
      "type": 101,
      "remark": "城市",
      "jianpin": "SRA",
      "postCode": "334000",
      "districtSeq": 361100,
      "code": "0",
      "sort": 1
    },
    {
      "regionId": 152,
      "regionName": "抚州市",
      "parentId": 14,
      "parentIds": ",0,5000,14,152,",
      "type": 101,
      "remark": "城市",
      "jianpin": "FUZ",
      "postCode": "344000",
      "districtSeq": 361000,
      "code": "0",
      "sort": 1
    },
    {
      "regionId": 153,
      "regionName": "宜春市",
      "parentId": 14,
      "parentIds": ",0,5000,14,153,",
      "type": 101,
      "remark": "城市",
      "jianpin": "YCU",
      "postCode": "336000",
      "districtSeq": 360900,
      "code": "0",
      "sort": 1
    },
    {
      "regionId": 154,
      "regionName": "吉安市",
      "parentId": 14,
      "parentIds": ",0,5000,14,154,",
      "type": 101,
      "remark": "城市",
      "jianpin": "JAS",
      "postCode": "343000",
      "districtSeq": 360800,
      "code": "0",
      "sort": 1
    },
    {
      "regionId": 155,
      "regionName": "赣州市",
      "parentId": 14,
      "parentIds": ",0,5000,14,155,",
      "type": 101,
      "remark": "城市",
      "jianpin": "GZH",
      "postCode": "341000",
      "districtSeq": 360700,
      "code": "0",
      "sort": 1
    },
    {
      "regionId": 156,
      "regionName": "景德镇市",
      "parentId": 14,
      "parentIds": ",0,5000,14,156,",
      "type": 101,
      "remark": "城市",
      "jianpin": "JDZ",
      "postCode": "333000",
      "districtSeq": 360200,
      "code": "0",
      "sort": 1
    },
    {
      "regionId": 157,
      "regionName": "萍乡市",
      "parentId": 14,
      "parentIds": ",0,5000,14,157,",
      "type": 101,
      "remark": "城市",
      "jianpin": "PXS",
      "postCode": "337000",
      "districtSeq": 360300,
      "code": "0",
      "sort": 1
    },
    {
      "regionId": 158,
      "regionName": "菏泽市",
      "parentId": 15,
      "parentIds": ",0,5000,15,158,",
      "type": 101,
      "remark": "城市",
      "jianpin": "HZE",
      "postCode": "274000",
      "districtSeq": 371700,
      "code": "0",
      "sort": 1
    },
    {
      "regionId": 159,
      "regionName": "济南市",
      "parentId": 15,
      "parentIds": ",0,5000,15,159,",
      "type": 101,
      "remark": "城市",
      "jianpin": "JN",
      "postCode": "250000",
      "districtSeq": 370100,
      "code": "0",
      "sort": 1
    },
    {
      "regionId": 160,
      "regionName": "青岛市",
      "parentId": 15,
      "parentIds": ",0,5000,15,160,",
      "type": 101,
      "remark": "城市",
      "jianpin": "QD",
      "postCode": "266000",
      "districtSeq": 370200,
      "code": "0",
      "sort": 1
    },
    {
      "regionId": 161,
      "regionName": "淄博市",
      "parentId": 15,
      "parentIds": ",0,5000,15,161,",
      "type": 101,
      "remark": "城市",
      "jianpin": "ZBO",
      "postCode": "255000",
      "districtSeq": 370300,
      "code": "0",
      "sort": 1
    },
    {
      "regionId": 162,
      "regionName": "德州市",
      "parentId": 15,
      "parentIds": ",0,5000,15,162,",
      "type": 101,
      "remark": "城市",
      "jianpin": "DZS",
      "postCode": "253000",
      "districtSeq": 371400,
      "code": "0",
      "sort": 1
    },
    {
      "regionId": 163,
      "regionName": "烟台市",
      "parentId": 15,
      "parentIds": ",0,5000,15,163,",
      "type": 101,
      "remark": "城市",
      "jianpin": "YT",
      "postCode": "264000",
      "districtSeq": 370600,
      "code": "0",
      "sort": 1
    },
    {
      "regionId": 164,
      "regionName": "潍坊市",
      "parentId": 15,
      "parentIds": ",0,5000,15,164,",
      "type": 101,
      "remark": "城市",
      "jianpin": "WEF",
      "postCode": "261000",
      "districtSeq": 370700,
      "code": "0",
      "sort": 1
    },
    {
      "regionId": 165,
      "regionName": "济宁市",
      "parentId": 15,
      "parentIds": ",0,5000,15,165,",
      "type": 101,
      "remark": "城市",
      "jianpin": "JNG",
      "postCode": "272000",
      "districtSeq": 370800,
      "code": "0",
      "sort": 1
    },
    {
      "regionId": 166,
      "regionName": "泰安市",
      "parentId": 15,
      "parentIds": ",0,5000,15,166,",
      "type": 101,
      "remark": "城市",
      "jianpin": "TAI",
      "postCode": "271000",
      "districtSeq": 370900,
      "code": "0",
      "sort": 1
    },
    {
      "regionId": 167,
      "regionName": "临沂市",
      "parentId": 15,
      "parentIds": ",0,5000,15,167,",
      "type": 101,
      "remark": "城市",
      "jianpin": "LYI",
      "postCode": "276000",
      "districtSeq": 371300,
      "code": "0",
      "sort": 1
    },
    {
      "regionId": 168,
      "regionName": "滨州市",
      "parentId": 15,
      "parentIds": ",0,5000,15,168,",
      "type": 101,
      "remark": "城市",
      "jianpin": "BZU",
      "postCode": "256600",
      "districtSeq": 371600,
      "code": "0",
      "sort": 1
    },
    {
      "regionId": 169,
      "regionName": "东营市",
      "parentId": 15,
      "parentIds": ",0,5000,15,169,",
      "type": 101,
      "remark": "城市",
      "jianpin": "DYG",
      "postCode": "257000",
      "districtSeq": 370500,
      "code": "0",
      "sort": 1
    },
    {
      "regionId": 170,
      "regionName": "威海市",
      "parentId": 15,
      "parentIds": ",0,5000,15,170,",
      "type": 101,
      "remark": "城市",
      "jianpin": "WEH",
      "postCode": "264200",
      "districtSeq": 371000,
      "code": "0",
      "sort": 1
    },
    {
      "regionId": 171,
      "regionName": "枣庄市",
      "parentId": 15,
      "parentIds": ",0,5000,15,171,",
      "type": 101,
      "remark": "城市",
      "jianpin": "ZZG",
      "postCode": "277000",
      "districtSeq": 370400,
      "code": "0",
      "sort": 1
    },
    {
      "regionId": 172,
      "regionName": "日照市",
      "parentId": 15,
      "parentIds": ",0,5000,15,172,",
      "type": 101,
      "remark": "城市",
      "jianpin": "RZ",
      "postCode": "276800",
      "districtSeq": 371100,
      "code": "0",
      "sort": 1
    },
    {
      "regionId": 173,
      "regionName": "莱芜市",
      "parentId": 15,
      "parentIds": ",0,5000,15,173,",
      "type": 101,
      "remark": "城市",
      "jianpin": "LWS",
      "postCode": "271100",
      "districtSeq": 371200,
      "code": "0",
      "sort": 1
    },
    {
      "regionId": 174,
      "regionName": "聊城市",
      "parentId": 15,
      "parentIds": ",0,5000,15,174,",
      "type": 101,
      "remark": "城市",
      "jianpin": "LCH",
      "postCode": "252000",
      "districtSeq": 371500,
      "code": "0",
      "sort": 1
    },
    {
      "regionId": 175,
      "regionName": "商丘市",
      "parentId": 16,
      "parentIds": ",0,5000,16,175,",
      "type": 101,
      "remark": "城市",
      "jianpin": "SQS",
      "postCode": "476000",
      "districtSeq": 411400,
      "code": "0",
      "sort": 1
    },
    {
      "regionId": 176,
      "regionName": "郑州市",
      "parentId": 16,
      "parentIds": ",0,5000,16,176,",
      "type": 101,
      "remark": "城市",
      "jianpin": "ZZ",
      "postCode": "450000",
      "districtSeq": 410100,
      "code": "0",
      "sort": 1
    },
    {
      "regionId": 177,
      "regionName": "安阳市",
      "parentId": 16,
      "parentIds": ",0,5000,16,177,",
      "type": 101,
      "remark": "城市",
      "jianpin": "AYS",
      "postCode": "455000",
      "districtSeq": 410500,
      "code": "0",
      "sort": 1
    },
    {
      "regionId": 178,
      "regionName": "新乡市",
      "parentId": 16,
      "parentIds": ",0,5000,16,178,",
      "type": 101,
      "remark": "城市",
      "jianpin": "XXS",
      "postCode": "453000",
      "districtSeq": 410700,
      "code": "0",
      "sort": 1
    },
    {
      "regionId": 179,
      "regionName": "许昌市",
      "parentId": 16,
      "parentIds": ",0,5000,16,179,",
      "type": 101,
      "remark": "城市",
      "jianpin": "XCS",
      "postCode": "461000",
      "districtSeq": 411000,
      "code": "0",
      "sort": 1
    },
    {
      "regionId": 180,
      "regionName": "平顶山市",
      "parentId": 16,
      "parentIds": ",0,5000,16,180,",
      "type": 101,
      "remark": "城市",
      "jianpin": "PDS",
      "postCode": "467000",
      "districtSeq": 410400,
      "code": "0",
      "sort": 1
    },
    {
      "regionId": 181,
      "regionName": "信阳市",
      "parentId": 16,
      "parentIds": ",0,5000,16,181,",
      "type": 101,
      "remark": "城市",
      "jianpin": "XYG",
      "postCode": "464000",
      "districtSeq": 411500,
      "code": "0",
      "sort": 1
    },
    {
      "regionId": 182,
      "regionName": "南阳市",
      "parentId": 16,
      "parentIds": ",0,5000,16,182,",
      "type": 101,
      "remark": "城市",
      "jianpin": "NYS",
      "postCode": "473000",
      "districtSeq": 411300,
      "code": "0",
      "sort": 1
    },
    {
      "regionId": 183,
      "regionName": "开封市",
      "parentId": 16,
      "parentIds": ",0,5000,16,183,",
      "type": 101,
      "remark": "城市",
      "jianpin": "KFS",
      "postCode": "475000",
      "districtSeq": 410200,
      "code": "0",
      "sort": 1
    },
    {
      "regionId": 184,
      "regionName": "洛阳市",
      "parentId": 16,
      "parentIds": ",0,5000,16,184,",
      "type": 101,
      "remark": "城市",
      "jianpin": "LY",
      "postCode": "471000",
      "districtSeq": 410300,
      "code": "0",
      "sort": 1
    },
    {
      "regionId": 185,
      "regionName": "济源市",
      "parentId": 16,
      "parentIds": ",0,5000,16,185,",
      "type": 101,
      "remark": "城市",
      "jianpin": "JYU",
      "postCode": "454650",
      "districtSeq": 419001,
      "code": "0",
      "sort": 1
    },
    {
      "regionId": 186,
      "regionName": "焦作市",
      "parentId": 16,
      "parentIds": ",0,5000,16,186,",
      "type": 101,
      "remark": "城市",
      "jianpin": "JZY",
      "postCode": "454150",
      "districtSeq": 410800,
      "code": "0",
      "sort": 1
    },
    {
      "regionId": 187,
      "regionName": "鹤壁市",
      "parentId": 16,
      "parentIds": ",0,5000,16,187,",
      "type": 101,
      "remark": "城市",
      "jianpin": "HBS",
      "postCode": "458000",
      "districtSeq": 410600,
      "code": "0",
      "sort": 1
    },
    {
      "regionId": 188,
      "regionName": "濮阳市",
      "parentId": 16,
      "parentIds": ",0,5000,16,188,",
      "type": 101,
      "remark": "城市",
      "jianpin": "PYA",
      "postCode": "457000",
      "districtSeq": 410900,
      "code": "0",
      "sort": 1
    },
    {
      "regionId": 189,
      "regionName": "周口市",
      "parentId": 16,
      "parentIds": ",0,5000,16,189,",
      "type": 101,
      "remark": "城市",
      "jianpin": "ZKO",
      "postCode": "466000",
      "districtSeq": 411600,
      "code": "0",
      "sort": 1
    },
    {
      "regionId": 190,
      "regionName": "漯河市",
      "parentId": 16,
      "parentIds": ",0,5000,16,190,",
      "type": 101,
      "remark": "城市",
      "jianpin": "LHS",
      "postCode": "462000",
      "districtSeq": 411100,
      "code": "0",
      "sort": 1
    },
    {
      "regionId": 191,
      "regionName": "驻马店市",
      "parentId": 16,
      "parentIds": ",0,5000,16,191,",
      "type": 101,
      "remark": "城市",
      "jianpin": "ZMD",
      "postCode": "463000",
      "districtSeq": 411700,
      "code": "0",
      "sort": 1
    },
    {
      "regionId": 192,
      "regionName": "三门峡市",
      "parentId": 16,
      "parentIds": ",0,5000,16,192,",
      "type": 101,
      "remark": "城市",
      "jianpin": "SMX",
      "postCode": "472000",
      "districtSeq": 411200,
      "code": "0",
      "sort": 1
    },
    {
      "regionId": 193,
      "regionName": "武汉市",
      "parentId": 17,
      "parentIds": ",0,5000,17,193,",
      "type": 101,
      "remark": "城市",
      "jianpin": "WH",
      "postCode": "430000",
      "districtSeq": 420100,
      "code": "0",
      "sort": 1
    },
    {
      "regionId": 195,
      "regionName": "鄂州市",
      "parentId": 17,
      "parentIds": ",0,5000,17,195,",
      "type": 101,
      "remark": "城市",
      "jianpin": "EZS",
      "postCode": "436000",
      "districtSeq": 420700,
      "code": "0",
      "sort": 1
    },
    {
      "regionId": 196,
      "regionName": "孝感市",
      "parentId": 17,
      "parentIds": ",0,5000,17,196,",
      "type": 101,
      "remark": "城市",
      "jianpin": "XGE",
      "postCode": "432000",
      "districtSeq": 420900,
      "code": "0",
      "sort": 1
    },
    {
      "regionId": 197,
      "regionName": "黄冈市",
      "parentId": 17,
      "parentIds": ",0,5000,17,197,",
      "type": 101,
      "remark": "城市",
      "jianpin": "HGA",
      "postCode": "438000",
      "districtSeq": 421100,
      "code": "0",
      "sort": 1
    },
    {
      "regionId": 198,
      "regionName": "黄石市",
      "parentId": 17,
      "parentIds": ",0,5000,17,198,",
      "type": 101,
      "remark": "城市",
      "jianpin": "HUS",
      "postCode": "435000",
      "districtSeq": 420200,
      "code": "0",
      "sort": 1
    },
    {
      "regionId": 199,
      "regionName": "咸宁市",
      "parentId": 17,
      "parentIds": ",0,5000,17,199,",
      "type": 101,
      "remark": "城市",
      "jianpin": "XNS",
      "postCode": "437000",
      "districtSeq": 421200,
      "code": "0",
      "sort": 1
    },
    {
      "regionId": 200,
      "regionName": "荆州市",
      "parentId": 17,
      "parentIds": ",0,5000,17,200,",
      "type": 101,
      "remark": "城市",
      "jianpin": "JGZ",
      "postCode": "434000",
      "districtSeq": 421000,
      "code": "0",
      "sort": 1
    },
    {
      "regionId": 201,
      "regionName": "宜昌市",
      "parentId": 17,
      "parentIds": ",0,5000,17,201,",
      "type": 101,
      "remark": "城市",
      "jianpin": "YCS",
      "postCode": "443000",
      "districtSeq": 420500,
      "code": "0",
      "sort": 1
    },
    {
      "regionId": 202,
      "regionName": "恩施土家族苗族自治州",
      "parentId": 17,
      "parentIds": ",0,5000,17,202,",
      "type": 101,
      "remark": "城市",
      "jianpin": "ESH",
      "postCode": "445000",
      "districtSeq": 422800,
      "code": "0",
      "sort": 1
    },
    {
      "regionId": 203,
      "regionName": "神农架林区",
      "parentId": 17,
      "parentIds": ",0,5000,17,203,",
      "type": 101,
      "remark": "城市",
      "jianpin": "SNJ",
      "postCode": "442400",
      "districtSeq": 429021,
      "code": "0",
      "sort": 1
    },
    {
      "regionId": 204,
      "regionName": "十堰市",
      "parentId": 17,
      "parentIds": ",0,5000,17,204,",
      "type": 101,
      "remark": "城市",
      "jianpin": "SYE",
      "postCode": "442000",
      "districtSeq": 420300,
      "code": "0",
      "sort": 1
    },
    {
      "regionId": 205,
      "regionName": "随州市",
      "parentId": 17,
      "parentIds": ",0,5000,17,205,",
      "type": 101,
      "remark": "城市",
      "jianpin": "SZO",
      "postCode": "441300",
      "districtSeq": 421300,
      "code": "0",
      "sort": 1
    },
    {
      "regionId": 206,
      "regionName": "荆门市",
      "parentId": 17,
      "parentIds": ",0,5000,17,206,",
      "type": 101,
      "remark": "城市",
      "jianpin": "JMS",
      "postCode": "448000",
      "districtSeq": 420800,
      "code": "0",
      "sort": 1
    },
    {
      "regionId": 207,
      "regionName": "仙桃市",
      "parentId": 17,
      "parentIds": ",0,5000,17,207,",
      "type": 101,
      "remark": "城市",
      "jianpin": "XNT",
      "postCode": "433000",
      "districtSeq": 429004,
      "code": "0",
      "sort": 1
    },
    {
      "regionId": 208,
      "regionName": "天门市",
      "parentId": 17,
      "parentIds": ",0,5000,17,208,",
      "type": 101,
      "remark": "城市",
      "jianpin": "TMS",
      "postCode": "431700",
      "districtSeq": 429006,
      "code": "0",
      "sort": 1
    },
    {
      "regionId": 209,
      "regionName": "潜江市",
      "parentId": 17,
      "parentIds": ",0,5000,17,209,",
      "type": 101,
      "remark": "城市",
      "jianpin": "QNJ",
      "postCode": "433100",
      "districtSeq": 429005,
      "code": "0",
      "sort": 1
    },
    {
      "regionId": 210,
      "regionName": "岳阳市",
      "parentId": 18,
      "parentIds": ",0,5000,18,210,",
      "type": 101,
      "remark": "城市",
      "jianpin": "YYG",
      "postCode": "414000",
      "districtSeq": 430600,
      "code": "0",
      "sort": 1
    },
    {
      "regionId": 211,
      "regionName": "长沙市",
      "parentId": 18,
      "parentIds": ",0,5000,18,211,",
      "type": 101,
      "remark": "城市",
      "jianpin": "CS",
      "postCode": "410000",
      "districtSeq": 430100,
      "code": "0",
      "sort": 1
    },
    {
      "regionId": 212,
      "regionName": "湘潭市",
      "parentId": 18,
      "parentIds": ",0,5000,18,212,",
      "type": 101,
      "remark": "城市",
      "jianpin": "XGT",
      "postCode": "411100",
      "districtSeq": 430300,
      "code": "0",
      "sort": 1
    },
    {
      "regionId": 213,
      "regionName": "株洲市",
      "parentId": 18,
      "parentIds": ",0,5000,18,213,",
      "type": 101,
      "remark": "城市",
      "jianpin": "ZZS",
      "postCode": "412000",
      "districtSeq": 430200,
      "code": "0",
      "sort": 1
    },
    {
      "regionId": 214,
      "regionName": "衡阳市",
      "parentId": 18,
      "parentIds": ",0,5000,18,214,",
      "type": 101,
      "remark": "城市",
      "jianpin": "HNY",
      "postCode": "421000",
      "districtSeq": 430400,
      "code": "0",
      "sort": 1
    },
    {
      "regionId": 215,
      "regionName": "郴州市",
      "parentId": 18,
      "parentIds": ",0,5000,18,215,",
      "type": 101,
      "remark": "城市",
      "jianpin": "CNZ",
      "postCode": "423000",
      "districtSeq": 431000,
      "code": "0",
      "sort": 1
    },
    {
      "regionId": 216,
      "regionName": "常德市",
      "parentId": 18,
      "parentIds": ",0,5000,18,216,",
      "type": 101,
      "remark": "城市",
      "jianpin": "CDE",
      "postCode": "415000",
      "districtSeq": 430700,
      "code": "0",
      "sort": 1
    },
    {
      "regionId": 217,
      "regionName": "益阳市",
      "parentId": 18,
      "parentIds": ",0,5000,18,217,",
      "type": 101,
      "remark": "城市",
      "jianpin": "YYS",
      "postCode": "413000",
      "districtSeq": 430900,
      "code": "0",
      "sort": 1
    },
    {
      "regionId": 218,
      "regionName": "娄底市",
      "parentId": 18,
      "parentIds": ",0,5000,18,218,",
      "type": 101,
      "remark": "城市",
      "jianpin": "LDI",
      "postCode": "417000",
      "districtSeq": 431300,
      "code": "0",
      "sort": 1
    },
    {
      "regionId": 219,
      "regionName": "邵阳市",
      "parentId": 18,
      "parentIds": ",0,5000,18,219,",
      "type": 101,
      "remark": "城市",
      "jianpin": "SYR",
      "postCode": "422000",
      "districtSeq": 430500,
      "code": "0",
      "sort": 1
    },
    {
      "regionId": 220,
      "regionName": "湘西土家族苗族自治州",
      "parentId": 18,
      "parentIds": ",0,5000,18,220,",
      "type": 101,
      "remark": "城市",
      "jianpin": "XXZ",
      "postCode": "416000",
      "districtSeq": 433100,
      "code": "0",
      "sort": 1
    },
    {
      "regionId": 221,
      "regionName": "张家界市",
      "parentId": 18,
      "parentIds": ",0,5000,18,221,",
      "type": 101,
      "remark": "城市",
      "jianpin": "ZJJ",
      "postCode": "427000",
      "districtSeq": 430800,
      "code": "0",
      "sort": 1
    },
    {
      "regionId": 222,
      "regionName": "怀化市",
      "parentId": 18,
      "parentIds": ",0,5000,18,222,",
      "type": 101,
      "remark": "城市",
      "jianpin": "HHS",
      "postCode": "418000",
      "districtSeq": 431200,
      "code": "0",
      "sort": 1
    },
    {
      "regionId": 223,
      "regionName": "永州市",
      "parentId": 18,
      "parentIds": ",0,5000,18,223,",
      "type": 101,
      "remark": "城市",
      "jianpin": "YZS",
      "postCode": "425000",
      "districtSeq": 431100,
      "code": "0",
      "sort": 1
    },
    {
      "regionId": 224,
      "regionName": "广州市",
      "parentId": 19,
      "parentIds": ",0,5000,19,224,",
      "type": 101,
      "remark": "城市",
      "jianpin": "GZ",
      "postCode": "510000",
      "districtSeq": 440100,
      "code": "0",
      "sort": 1
    },
    {
      "regionId": 225,
      "regionName": "汕尾市",
      "parentId": 19,
      "parentIds": ",0,5000,19,225,",
      "type": 101,
      "remark": "城市",
      "jianpin": "SWE",
      "postCode": "516600",
      "districtSeq": 441500,
      "code": "0",
      "sort": 1
    },
    {
      "regionId": 227,
      "regionName": "揭阳市",
      "parentId": 19,
      "parentIds": ",0,5000,19,227,",
      "type": 101,
      "remark": "城市",
      "jianpin": "JIY",
      "postCode": "522000",
      "districtSeq": 445200,
      "code": "0",
      "sort": 1
    },
    {
      "regionId": 228,
      "regionName": "茂名市",
      "parentId": 19,
      "parentIds": ",0,5000,19,228,",
      "type": 101,
      "remark": "城市",
      "jianpin": "MMI",
      "postCode": "525000",
      "districtSeq": 440900,
      "code": "0",
      "sort": 1
    },
    {
      "regionId": 229,
      "regionName": "惠州市",
      "parentId": 19,
      "parentIds": ",0,5000,19,229,",
      "type": 101,
      "remark": "城市",
      "jianpin": "HZO",
      "postCode": "516000",
      "districtSeq": 441300,
      "code": "0",
      "sort": 1
    },
    {
      "regionId": 230,
      "regionName": "江门市",
      "parentId": 19,
      "parentIds": ",0,5000,19,230,",
      "type": 101,
      "remark": "城市",
      "jianpin": "JMN",
      "postCode": "529000",
      "districtSeq": 440700,
      "code": "0",
      "sort": 1
    },
    {
      "regionId": 231,
      "regionName": "韶关市",
      "parentId": 19,
      "parentIds": ",0,5000,19,231,",
      "type": 101,
      "remark": "城市",
      "jianpin": "HSC",
      "postCode": "512000",
      "districtSeq": 440200,
      "code": "0",
      "sort": 1
    },
    {
      "regionId": 232,
      "regionName": "梅州市",
      "parentId": 19,
      "parentIds": ",0,5000,19,232,",
      "type": 101,
      "remark": "城市",
      "jianpin": "MXZ",
      "postCode": "514000",
      "districtSeq": 441400,
      "code": "0",
      "sort": 1
    },
    {
      "regionId": 233,
      "regionName": "汕头市",
      "parentId": 19,
      "parentIds": ",0,5000,19,233,",
      "type": 101,
      "remark": "城市",
      "jianpin": "STS",
      "postCode": "515000",
      "districtSeq": 440500,
      "code": "0",
      "sort": 1
    },
    {
      "regionId": 234,
      "regionName": "深圳市",
      "parentId": 19,
      "parentIds": ",0,5000,19,234,",
      "type": 101,
      "remark": "城市",
      "jianpin": "SZ",
      "postCode": "518000",
      "districtSeq": 440300,
      "code": "0",
      "sort": 1
    },
    {
      "regionId": 235,
      "regionName": "珠海市",
      "parentId": 19,
      "parentIds": ",0,5000,19,235,",
      "type": 101,
      "remark": "城市",
      "jianpin": "ZH",
      "postCode": "519000",
      "districtSeq": 440400,
      "code": "0",
      "sort": 1
    },
    {
      "regionId": 236,
      "regionName": "佛山市",
      "parentId": 19,
      "parentIds": ",0,5000,19,236,",
      "type": 101,
      "remark": "城市",
      "jianpin": "FOS",
      "postCode": "528000",
      "districtSeq": 440600,
      "code": "0",
      "sort": 1
    },
    {
      "regionId": 237,
      "regionName": "肇庆市",
      "parentId": 19,
      "parentIds": ",0,5000,19,237,",
      "type": 101,
      "remark": "城市",
      "jianpin": "ZQG",
      "postCode": "526000",
      "districtSeq": 441200,
      "code": "0",
      "sort": 1
    },
    {
      "regionId": 238,
      "regionName": "湛江市",
      "parentId": 19,
      "parentIds": ",0,5000,19,238,",
      "type": 101,
      "remark": "城市",
      "jianpin": "ZHA",
      "postCode": "524000",
      "districtSeq": 440800,
      "code": "0",
      "sort": 1
    },
    {
      "regionId": 239,
      "regionName": "中山市",
      "parentId": 19,
      "parentIds": ",0,5000,19,239,",
      "type": 101,
      "remark": "城市",
      "jianpin": "ZS",
      "postCode": "528400",
      "districtSeq": 442000,
      "code": "0",
      "sort": 1
    },
    {
      "regionId": 240,
      "regionName": "河源市",
      "parentId": 19,
      "parentIds": ",0,5000,19,240,",
      "type": 101,
      "remark": "城市",
      "jianpin": "HEY",
      "postCode": "517000",
      "districtSeq": 441600,
      "code": "0",
      "sort": 1
    },
    {
      "regionId": 241,
      "regionName": "清远市",
      "parentId": 19,
      "parentIds": ",0,5000,19,241,",
      "type": 101,
      "remark": "城市",
      "jianpin": "QYN",
      "postCode": "511500",
      "districtSeq": 441800,
      "code": "0",
      "sort": 1
    },
    {
      "regionId": 242,
      "regionName": "云浮市",
      "parentId": 19,
      "parentIds": ",0,5000,19,242,",
      "type": 101,
      "remark": "城市",
      "jianpin": "YFS",
      "postCode": "527300",
      "districtSeq": 445300,
      "code": "0",
      "sort": 1
    },
    {
      "regionId": 243,
      "regionName": "潮州市",
      "parentId": 19,
      "parentIds": ",0,5000,19,243,",
      "type": 101,
      "remark": "城市",
      "jianpin": "CZY",
      "postCode": "521000",
      "districtSeq": 445100,
      "code": "0",
      "sort": 1
    },
    {
      "regionId": 244,
      "regionName": "东莞市",
      "parentId": 19,
      "parentIds": ",0,5000,19,244,",
      "type": 101,
      "remark": "城市",
      "jianpin": "DWS",
      "postCode": "523000",
      "districtSeq": 441900,
      "code": "0",
      "sort": 1
    },
    {
      "regionId": 245,
      "regionName": "兰州市",
      "parentId": 22,
      "parentIds": ",0,5000,22,245,",
      "type": 101,
      "remark": "城市",
      "jianpin": "LHW",
      "postCode": "730000",
      "districtSeq": 620100,
      "code": "0",
      "sort": 1
    },
    {
      "regionId": 246,
      "regionName": "金昌市",
      "parentId": 22,
      "parentIds": ",0,5000,22,246,",
      "type": 101,
      "remark": "城市",
      "jianpin": "JCS",
      "postCode": "737100",
      "districtSeq": 620300,
      "code": "0",
      "sort": 1
    },
    {
      "regionId": 247,
      "regionName": "白银市",
      "parentId": 22,
      "parentIds": ",0,5000,22,247,",
      "type": 101,
      "remark": "城市",
      "jianpin": "BYS",
      "postCode": "730900",
      "districtSeq": 620400,
      "code": "0",
      "sort": 1
    },
    {
      "regionId": 248,
      "regionName": "天水市",
      "parentId": 22,
      "parentIds": ",0,5000,22,248,",
      "type": 101,
      "remark": "城市",
      "jianpin": "TSU",
      "postCode": "741000",
      "districtSeq": 620500,
      "code": "0",
      "sort": 1
    },
    {
      "regionId": 249,
      "regionName": "嘉峪关市",
      "parentId": 22,
      "parentIds": ",0,5000,22,249,",
      "type": 101,
      "remark": "城市",
      "jianpin": "JYG",
      "postCode": "735100",
      "districtSeq": 620200,
      "code": "0",
      "sort": 1
    },
    {
      "regionId": 250,
      "regionName": "武威市",
      "parentId": 22,
      "parentIds": ",0,5000,22,250,",
      "type": 101,
      "remark": "城市",
      "jianpin": "WWU",
      "postCode": "733000",
      "districtSeq": 620600,
      "code": "0",
      "sort": 1
    },
    {
      "regionId": 251,
      "regionName": "张掖市",
      "parentId": 22,
      "parentIds": ",0,5000,22,251,",
      "type": 101,
      "remark": "城市",
      "jianpin": "ZYS",
      "postCode": "734000",
      "districtSeq": 620700,
      "code": "0",
      "sort": 1
    },
    {
      "regionId": 252,
      "regionName": "平凉市",
      "parentId": 22,
      "parentIds": ",0,5000,22,252,",
      "type": 101,
      "remark": "城市",
      "jianpin": "PLG",
      "postCode": "744000",
      "districtSeq": 620800,
      "code": "0",
      "sort": 1
    },
    {
      "regionId": 253,
      "regionName": "酒泉市",
      "parentId": 22,
      "parentIds": ",0,5000,22,253,",
      "type": 101,
      "remark": "城市",
      "jianpin": "JQU",
      "postCode": "735000",
      "districtSeq": 620900,
      "code": "0",
      "sort": 1
    },
    {
      "regionId": 254,
      "regionName": "庆阳市",
      "parentId": 22,
      "parentIds": ",0,5000,22,254,",
      "type": 101,
      "remark": "城市",
      "jianpin": "QYA",
      "postCode": "745000",
      "districtSeq": 621000,
      "code": "0",
      "sort": 1
    },
    {
      "regionId": 255,
      "regionName": "定西市",
      "parentId": 22,
      "parentIds": ",0,5000,22,255,",
      "type": 101,
      "remark": "城市",
      "jianpin": "DXI",
      "postCode": "743000",
      "districtSeq": 621100,
      "code": "0",
      "sort": 1
    },
    {
      "regionId": 256,
      "regionName": "陇南市",
      "parentId": 22,
      "parentIds": ",0,5000,22,256,",
      "type": 101,
      "remark": "城市",
      "jianpin": "LNA",
      "postCode": "742500",
      "districtSeq": 621200,
      "code": "0",
      "sort": 1
    },
    {
      "regionId": 257,
      "regionName": "临夏回族自治州",
      "parentId": 22,
      "parentIds": ",0,5000,22,257,",
      "type": 101,
      "remark": "城市",
      "jianpin": "LXH",
      "postCode": "731100",
      "districtSeq": 622900,
      "code": "0",
      "sort": 1
    },
    {
      "regionId": 258,
      "regionName": "甘南藏族自治州",
      "parentId": 22,
      "parentIds": ",0,5000,22,258,",
      "type": 101,
      "remark": "城市",
      "jianpin": "GNZ",
      "postCode": "747000",
      "districtSeq": 623000,
      "code": "0",
      "sort": 1
    },
    {
      "regionId": 259,
      "regionName": "成都市",
      "parentId": 28,
      "parentIds": ",0,5000,28,259,",
      "type": 101,
      "remark": "城市",
      "jianpin": "CD",
      "postCode": "610000",
      "districtSeq": 510100,
      "code": "0",
      "sort": 1
    },
    {
      "regionId": 260,
      "regionName": "攀枝花市",
      "parentId": 28,
      "parentIds": ",0,5000,28,260,",
      "type": 101,
      "remark": "城市",
      "jianpin": "PZH",
      "postCode": "617000",
      "districtSeq": 510400,
      "code": "0",
      "sort": 1
    },
    {
      "regionId": 261,
      "regionName": "自贡市",
      "parentId": 28,
      "parentIds": ",0,5000,28,261,",
      "type": 101,
      "remark": "城市",
      "jianpin": "ZGS",
      "postCode": "643000",
      "districtSeq": 510300,
      "code": "0",
      "sort": 1
    },
    {
      "regionId": 262,
      "regionName": "绵阳市",
      "parentId": 28,
      "parentIds": ",0,5000,28,262,",
      "type": 101,
      "remark": "城市",
      "jianpin": "MYG",
      "postCode": "621000",
      "districtSeq": 510700,
      "code": "0",
      "sort": 1
    },
    {
      "regionId": 263,
      "regionName": "南充市",
      "parentId": 28,
      "parentIds": ",0,5000,28,263,",
      "type": 101,
      "remark": "城市",
      "jianpin": "NCO",
      "postCode": "637000",
      "districtSeq": 511300,
      "code": "0",
      "sort": 1
    },
    {
      "regionId": 264,
      "regionName": "达州市",
      "parentId": 28,
      "parentIds": ",0,5000,28,264,",
      "type": 101,
      "remark": "城市",
      "jianpin": "DZO",
      "postCode": "635000",
      "districtSeq": 511700,
      "code": "0",
      "sort": 1
    },
    {
      "regionId": 265,
      "regionName": "遂宁市",
      "parentId": 28,
      "parentIds": ",0,5000,28,265,",
      "type": 101,
      "remark": "城市",
      "jianpin": "SNS",
      "postCode": "629000",
      "districtSeq": 510900,
      "code": "0",
      "sort": 1
    },
    {
      "regionId": 266,
      "regionName": "广安市",
      "parentId": 28,
      "parentIds": ",0,5000,28,266,",
      "type": 101,
      "remark": "城市",
      "jianpin": "GAC",
      "postCode": "638500",
      "districtSeq": 511600,
      "code": "0",
      "sort": 1
    },
    {
      "regionId": 267,
      "regionName": "巴中市",
      "parentId": 28,
      "parentIds": ",0,5000,28,267,",
      "type": 101,
      "remark": "城市",
      "jianpin": "BZS",
      "postCode": "636600",
      "districtSeq": 511900,
      "code": "0",
      "sort": 1
    },
    {
      "regionId": 268,
      "regionName": "泸州市",
      "parentId": 28,
      "parentIds": ",0,5000,28,268,",
      "type": 101,
      "remark": "城市",
      "jianpin": "LUZ",
      "postCode": "646000",
      "districtSeq": 510500,
      "code": "0",
      "sort": 1
    },
    {
      "regionId": 269,
      "regionName": "宜宾市",
      "parentId": 28,
      "parentIds": ",0,5000,28,269,",
      "type": 101,
      "remark": "城市",
      "jianpin": "YBS",
      "postCode": "644000",
      "districtSeq": 511500,
      "code": "0",
      "sort": 1
    },
    {
      "regionId": 270,
      "regionName": "资阳市",
      "parentId": 28,
      "parentIds": ",0,5000,28,270,",
      "type": 101,
      "remark": "城市",
      "jianpin": "ZYA",
      "postCode": "641300",
      "districtSeq": 512000,
      "code": "0",
      "sort": 1
    },
    {
      "regionId": 271,
      "regionName": "内江市",
      "parentId": 28,
      "parentIds": ",0,5000,28,271,",
      "type": 101,
      "remark": "城市",
      "jianpin": "NJS",
      "postCode": "641000",
      "districtSeq": 511000,
      "code": "0",
      "sort": 1
    },
    {
      "regionId": 272,
      "regionName": "乐山市",
      "parentId": 28,
      "parentIds": ",0,5000,28,272,",
      "type": 101,
      "remark": "城市",
      "jianpin": "LES",
      "postCode": "614000",
      "districtSeq": 511100,
      "code": "0",
      "sort": 1
    },
    {
      "regionId": 273,
      "regionName": "眉山市",
      "parentId": 28,
      "parentIds": ",0,5000,28,273,",
      "type": 101,
      "remark": "城市",
      "jianpin": "MSA",
      "postCode": "620000",
      "districtSeq": 511400,
      "code": "0",
      "sort": 1
    },
    {
      "regionId": 274,
      "regionName": "凉山彝族自治州",
      "parentId": 28,
      "parentIds": ",0,5000,28,274,",
      "type": 101,
      "remark": "城市",
      "jianpin": "LSY",
      "postCode": "615000",
      "districtSeq": 513400,
      "code": "0",
      "sort": 1
    },
    {
      "regionId": 275,
      "regionName": "雅安市",
      "parentId": 28,
      "parentIds": ",0,5000,28,275,",
      "type": 101,
      "remark": "城市",
      "jianpin": "YAN",
      "postCode": "625000",
      "districtSeq": 511800,
      "code": "0",
      "sort": 1
    },
    {
      "regionId": 276,
      "regionName": "甘孜藏族自治州",
      "parentId": 28,
      "parentIds": ",0,5000,28,276,",
      "type": 101,
      "remark": "城市",
      "jianpin": "GAZ",
      "postCode": "626000",
      "districtSeq": 513300,
      "code": "0",
      "sort": 1
    },
    {
      "regionId": 277,
      "regionName": "阿坝藏族羌族自治州",
      "parentId": 28,
      "parentIds": ",0,5000,28,277,",
      "type": 101,
      "remark": "城市",
      "jianpin": "ABA",
      "postCode": "624000",
      "districtSeq": 513200,
      "code": "0",
      "sort": 1
    },
    {
      "regionId": 278,
      "regionName": "德阳市",
      "parentId": 28,
      "parentIds": ",0,5000,28,278,",
      "type": 101,
      "remark": "城市",
      "jianpin": "DEY",
      "postCode": "618000",
      "districtSeq": 510600,
      "code": "0",
      "sort": 1
    },
    {
      "regionId": 279,
      "regionName": "广元市",
      "parentId": 28,
      "parentIds": ",0,5000,28,279,",
      "type": 101,
      "remark": "城市",
      "jianpin": "GYC",
      "postCode": "628000",
      "districtSeq": 510800,
      "code": "0",
      "sort": 1
    },
    {
      "regionId": 280,
      "regionName": "贵阳市",
      "parentId": 29,
      "parentIds": ",0,5000,29,280,",
      "type": 101,
      "remark": "城市",
      "jianpin": "GY",
      "postCode": "550000",
      "districtSeq": 520100,
      "code": "0",
      "sort": 1
    },
    {
      "regionId": 281,
      "regionName": "遵义市",
      "parentId": 29,
      "parentIds": ",0,5000,29,281,",
      "type": 101,
      "remark": "城市",
      "jianpin": "ZY",
      "postCode": "563000",
      "districtSeq": 520300,
      "code": "0",
      "sort": 1
    },
    {
      "regionId": 282,
      "regionName": "安顺市",
      "parentId": 29,
      "parentIds": ",0,5000,29,282,",
      "type": 101,
      "remark": "城市",
      "jianpin": "ASU",
      "postCode": "561000",
      "districtSeq": 520400,
      "code": "0",
      "sort": 1
    },
    {
      "regionId": 283,
      "regionName": "黔南布依族苗族自治州",
      "parentId": 29,
      "parentIds": ",0,5000,29,283,",
      "type": 101,
      "remark": "城市",
      "jianpin": "QNZ",
      "postCode": "558000",
      "districtSeq": 522700,
      "code": "0",
      "sort": 1
    },
    {
      "regionId": 284,
      "regionName": "黔东南苗族侗族自治州",
      "parentId": 29,
      "parentIds": ",0,5000,29,284,",
      "type": 101,
      "remark": "城市",
      "jianpin": "QND",
      "postCode": "556000",
      "districtSeq": 522600,
      "code": "0",
      "sort": 1
    },
    {
      "regionId": 287,
      "regionName": "六盘水市",
      "parentId": 29,
      "parentIds": ",0,5000,29,287,",
      "type": 101,
      "remark": "城市",
      "jianpin": "LPS",
      "postCode": "553000",
      "districtSeq": 520200,
      "code": "0",
      "sort": 1
    },
    {
      "regionId": 288,
      "regionName": "黔西南布依族苗族自治州",
      "parentId": 29,
      "parentIds": ",0,5000,29,288,",
      "type": 101,
      "remark": "城市",
      "jianpin": "QXZ",
      "postCode": "562400",
      "districtSeq": 522300,
      "code": "0",
      "sort": 1
    },
    {
      "regionId": 289,
      "regionName": "海口市",
      "parentId": 20,
      "parentIds": ",0,5000,20,289,",
      "type": 101,
      "remark": "城市",
      "jianpin": "HK",
      "postCode": "570100",
      "districtSeq": 460100,
      "code": "0",
      "sort": 1
    },
    {
      "regionId": 290,
      "regionName": "三亚市",
      "parentId": 20,
      "parentIds": ",0,5000,20,290,",
      "type": 101,
      "remark": "城市",
      "jianpin": "SYA",
      "postCode": "572000",
      "districtSeq": 460200,
      "code": "0",
      "sort": 1
    },
    {
      "regionId": 291,
      "regionName": "五指山市",
      "parentId": 20,
      "parentIds": ",0,5000,20,291,",
      "type": 101,
      "remark": "城市",
      "jianpin": "WZSA",
      "postCode": "572200",
      "districtSeq": 469001,
      "code": "0",
      "sort": 1
    },
    {
      "regionId": 292,
      "regionName": "琼海市",
      "parentId": 20,
      "parentIds": ",0,5000,20,292,",
      "type": 101,
      "remark": "城市",
      "jianpin": "QHS",
      "postCode": "571400",
      "districtSeq": 469002,
      "code": "0",
      "sort": 1
    },
    {
      "regionId": 293,
      "regionName": "儋州市",
      "parentId": 20,
      "parentIds": ",0,5000,20,293,",
      "type": 101,
      "remark": "城市",
      "jianpin": "DAZ",
      "postCode": "0",
      "districtSeq": 460400,
      "code": "0",
      "sort": 1
    },
    {
      "regionId": 294,
      "regionName": "文昌市",
      "parentId": 20,
      "parentIds": ",0,5000,20,294,",
      "type": 101,
      "remark": "城市",
      "jianpin": "WEC",
      "postCode": "571300",
      "districtSeq": 469005,
      "code": "0",
      "sort": 1
    },
    {
      "regionId": 295,
      "regionName": "万宁市",
      "parentId": 20,
      "parentIds": ",0,5000,20,295,",
      "type": 101,
      "remark": "城市",
      "jianpin": "WNS",
      "postCode": "571500",
      "districtSeq": 469006,
      "code": "0",
      "sort": 1
    },
    {
      "regionId": 296,
      "regionName": "东方市",
      "parentId": 20,
      "parentIds": ",0,5000,20,296,",
      "type": 101,
      "remark": "城市",
      "jianpin": "DFA",
      "postCode": "572600",
      "districtSeq": 469007,
      "code": "0",
      "sort": 1
    },
    {
      "regionId": 297,
      "regionName": "澄迈县",
      "parentId": 20,
      "parentIds": ",0,5000,20,297,",
      "type": 101,
      "remark": "城市",
      "jianpin": "TMX",
      "postCode": "571900",
      "districtSeq": 469023,
      "code": "0",
      "sort": 1
    },
    {
      "regionId": 298,
      "regionName": "定安县",
      "parentId": 20,
      "parentIds": ",0,5000,20,298,",
      "type": 101,
      "remark": "城市",
      "jianpin": "DAN",
      "postCode": "571200",
      "districtSeq": 469021,
      "code": "0",
      "sort": 1
    },
    {
      "regionId": 299,
      "regionName": "屯昌县",
      "parentId": 20,
      "parentIds": ",0,5000,20,299,",
      "type": 101,
      "remark": "城市",
      "jianpin": "DCA",
      "postCode": "571600",
      "districtSeq": 469022,
      "code": "0",
      "sort": 1
    },
    {
      "regionId": 300,
      "regionName": "临高县",
      "parentId": 20,
      "parentIds": ",0,5000,20,300,",
      "type": 101,
      "remark": "城市",
      "jianpin": "LGX",
      "postCode": "571800",
      "districtSeq": 469024,
      "code": "0",
      "sort": 1
    },
    {
      "regionId": 307,
      "regionName": "西双版纳傣族自治州",
      "parentId": 30,
      "parentIds": ",0,5000,30,307,",
      "type": 101,
      "remark": "城市",
      "jianpin": "XSB",
      "postCode": "666100",
      "districtSeq": 532800,
      "code": "0",
      "sort": 1
    },
    {
      "regionId": 308,
      "regionName": "德宏傣族景颇族自治州",
      "parentId": 30,
      "parentIds": ",0,5000,30,308,",
      "type": 101,
      "remark": "城市",
      "jianpin": "DHG",
      "postCode": "678400",
      "districtSeq": 533100,
      "code": "0",
      "sort": 1
    },
    {
      "regionId": 309,
      "regionName": "昭通市",
      "parentId": 30,
      "parentIds": ",0,5000,30,309,",
      "type": 101,
      "remark": "城市",
      "jianpin": "ZTG",
      "postCode": "657000",
      "districtSeq": 530600,
      "code": "0",
      "sort": 1
    },
    {
      "regionId": 310,
      "regionName": "昆明市",
      "parentId": 30,
      "parentIds": ",0,5000,30,310,",
      "type": 101,
      "remark": "城市",
      "jianpin": "KMG",
      "postCode": "650000",
      "districtSeq": 530100,
      "code": "0",
      "sort": 1
    },
    {
      "regionId": 311,
      "regionName": "大理白族自治州",
      "parentId": 30,
      "parentIds": ",0,5000,30,311,",
      "type": 101,
      "remark": "城市",
      "jianpin": "DLZ",
      "postCode": "671000",
      "districtSeq": 532900,
      "code": "0",
      "sort": 1
    },
    {
      "regionId": 312,
      "regionName": "红河哈尼族彝族自治州",
      "parentId": 30,
      "parentIds": ",0,5000,30,312,",
      "type": 101,
      "remark": "城市",
      "jianpin": "HHZ",
      "postCode": "661400",
      "districtSeq": 532500,
      "code": "0",
      "sort": 1
    },
    {
      "regionId": 313,
      "regionName": "曲靖市",
      "parentId": 30,
      "parentIds": ",0,5000,30,313,",
      "type": 101,
      "remark": "城市",
      "jianpin": "QJS",
      "postCode": "655000",
      "districtSeq": 530300,
      "code": "0",
      "sort": 1
    },
    {
      "regionId": 314,
      "regionName": "保山市",
      "parentId": 30,
      "parentIds": ",0,5000,30,314,",
      "type": 101,
      "remark": "城市",
      "jianpin": "BSA",
      "postCode": "678000",
      "districtSeq": 530500,
      "code": "0",
      "sort": 1
    },
    {
      "regionId": 315,
      "regionName": "文山壮族苗族自治州",
      "parentId": 30,
      "parentIds": ",0,5000,30,315,",
      "type": 101,
      "remark": "城市",
      "jianpin": "WSZ",
      "postCode": "663000",
      "districtSeq": 532600,
      "code": "0",
      "sort": 1
    },
    {
      "regionId": 316,
      "regionName": "玉溪市",
      "parentId": 30,
      "parentIds": ",0,5000,30,316,",
      "type": 101,
      "remark": "城市",
      "jianpin": "YXS",
      "postCode": "653100",
      "districtSeq": 530400,
      "code": "0",
      "sort": 1
    },
    {
      "regionId": 317,
      "regionName": "楚雄彝族自治州",
      "parentId": 30,
      "parentIds": ",0,5000,30,317,",
      "type": 101,
      "remark": "城市",
      "jianpin": "CXD",
      "postCode": "675000",
      "districtSeq": 532300,
      "code": "0",
      "sort": 1
    },
    {
      "regionId": 318,
      "regionName": "普洱市",
      "parentId": 30,
      "parentIds": ",0,5000,30,318,",
      "type": 101,
      "remark": "城市",
      "jianpin": "PER",
      "postCode": "665000",
      "districtSeq": 530800,
      "code": "0",
      "sort": 1
    },
    {
      "regionId": 319,
      "regionName": "临沧市",
      "parentId": 30,
      "parentIds": ",0,5000,30,319,",
      "type": 101,
      "remark": "城市",
      "jianpin": "LCA",
      "postCode": "677000",
      "districtSeq": 530900,
      "code": "0",
      "sort": 1
    },
    {
      "regionId": 321,
      "regionName": "迪庆藏族自治州",
      "parentId": 30,
      "parentIds": ",0,5000,30,321,",
      "type": 101,
      "remark": "城市",
      "jianpin": "DEZ",
      "postCode": "674400",
      "districtSeq": 533400,
      "code": "0",
      "sort": 1
    },
    {
      "regionId": 322,
      "regionName": "丽江市",
      "parentId": 30,
      "parentIds": ",0,5000,30,322,",
      "type": 101,
      "remark": "城市",
      "jianpin": "LJA",
      "postCode": "674100",
      "districtSeq": 530700,
      "code": "0",
      "sort": 1
    },
    {
      "regionId": 323,
      "regionName": "海北藏族自治州",
      "parentId": 25,
      "parentIds": ",0,5000,25,323,",
      "type": 101,
      "remark": "城市",
      "jianpin": "HBZ",
      "postCode": "812200",
      "districtSeq": 632200,
      "code": "0",
      "sort": 1
    },
    {
      "regionId": 324,
      "regionName": "西宁市",
      "parentId": 25,
      "parentIds": ",0,5000,25,324,",
      "type": 101,
      "remark": "城市",
      "jianpin": "XNN",
      "postCode": "810000",
      "districtSeq": 630100,
      "code": "0",
      "sort": 1
    },
    {
      "regionId": 326,
      "regionName": "黄南藏族自治州",
      "parentId": 25,
      "parentIds": ",0,5000,25,326,",
      "type": 101,
      "remark": "城市",
      "jianpin": "HNZ",
      "postCode": "811300",
      "districtSeq": 632300,
      "code": "0",
      "sort": 1
    },
    {
      "regionId": 327,
      "regionName": "海南藏族自治州",
      "parentId": 25,
      "parentIds": ",0,5000,25,327,",
      "type": 101,
      "remark": "城市",
      "jianpin": "HNN",
      "postCode": "813000",
      "districtSeq": 632500,
      "code": "0",
      "sort": 1
    },
    {
      "regionId": 328,
      "regionName": "果洛藏族自治州",
      "parentId": 25,
      "parentIds": ",0,5000,25,328,",
      "type": 101,
      "remark": "城市",
      "jianpin": "GOL",
      "postCode": "814000",
      "districtSeq": 632600,
      "code": "0",
      "sort": 1
    },
    {
      "regionId": 329,
      "regionName": "玉树藏族自治州",
      "parentId": 25,
      "parentIds": ",0,5000,25,329,",
      "type": 101,
      "remark": "城市",
      "jianpin": "YSZ",
      "postCode": "815000",
      "districtSeq": 632700,
      "code": "0",
      "sort": 1
    },
    {
      "regionId": 330,
      "regionName": "海西蒙古族藏族自治州",
      "parentId": 25,
      "parentIds": ",0,5000,25,330,",
      "type": 101,
      "remark": "城市",
      "jianpin": "HXZ",
      "postCode": "817000",
      "districtSeq": 632800,
      "code": "0",
      "sort": 1
    },
    {
      "regionId": 331,
      "regionName": "西安市",
      "parentId": 23,
      "parentIds": ",0,5000,23,331,",
      "type": 101,
      "remark": "城市",
      "jianpin": "XA",
      "postCode": "710000",
      "districtSeq": 610100,
      "code": "0",
      "sort": 1
    },
    {
      "regionId": 332,
      "regionName": "咸阳市",
      "parentId": 23,
      "parentIds": ",0,5000,23,332,",
      "type": 101,
      "remark": "城市",
      "jianpin": "XYS",
      "postCode": "712000",
      "districtSeq": 610400,
      "code": "0",
      "sort": 1
    },
    {
      "regionId": 333,
      "regionName": "延安市",
      "parentId": 23,
      "parentIds": ",0,5000,23,333,",
      "type": 101,
      "remark": "城市",
      "jianpin": "YNA",
      "postCode": "716000",
      "districtSeq": 610600,
      "code": "0",
      "sort": 1
    },
    {
      "regionId": 334,
      "regionName": "榆林市",
      "parentId": 23,
      "parentIds": ",0,5000,23,334,",
      "type": 101,
      "remark": "城市",
      "jianpin": "YLI",
      "postCode": "719000",
      "districtSeq": 610800,
      "code": "0",
      "sort": 1
    },
    {
      "regionId": 335,
      "regionName": "渭南市",
      "parentId": 23,
      "parentIds": ",0,5000,23,335,",
      "type": 101,
      "remark": "城市",
      "jianpin": "WNA",
      "postCode": "714000",
      "districtSeq": 610500,
      "code": "0",
      "sort": 1
    },
    {
      "regionId": 336,
      "regionName": "商洛市",
      "parentId": 23,
      "parentIds": ",0,5000,23,336,",
      "type": 101,
      "remark": "城市",
      "jianpin": "SLO",
      "postCode": "726000",
      "districtSeq": 611000,
      "code": "0",
      "sort": 1
    },
    {
      "regionId": 337,
      "regionName": "安康市",
      "parentId": 23,
      "parentIds": ",0,5000,23,337,",
      "type": 101,
      "remark": "城市",
      "jianpin": "AKA",
      "postCode": "725000",
      "districtSeq": 610900,
      "code": "0",
      "sort": 1
    },
    {
      "regionId": 338,
      "regionName": "汉中市",
      "parentId": 23,
      "parentIds": ",0,5000,23,338,",
      "type": 101,
      "remark": "城市",
      "jianpin": "HZJ",
      "postCode": "723000",
      "districtSeq": 610700,
      "code": "0",
      "sort": 1
    },
    {
      "regionId": 339,
      "regionName": "宝鸡市",
      "parentId": 23,
      "parentIds": ",0,5000,23,339,",
      "type": 101,
      "remark": "城市",
      "jianpin": "BJI",
      "postCode": "721000",
      "districtSeq": 610300,
      "code": "0",
      "sort": 1
    },
    {
      "regionId": 340,
      "regionName": "铜川市",
      "parentId": 23,
      "parentIds": ",0,5000,23,340,",
      "type": 101,
      "remark": "城市",
      "jianpin": "TCN",
      "postCode": "727000",
      "districtSeq": 610200,
      "code": "0",
      "sort": 1
    },
    {
      "regionId": 341,
      "regionName": "防城港市",
      "parentId": 21,
      "parentIds": ",0,5000,21,341,",
      "type": 101,
      "remark": "城市",
      "jianpin": "FAN",
      "postCode": "538000",
      "districtSeq": 450600,
      "code": "0",
      "sort": 1
    },
    {
      "regionId": 342,
      "regionName": "南宁市",
      "parentId": 21,
      "parentIds": ",0,5000,21,342,",
      "type": 101,
      "remark": "城市",
      "jianpin": "NNG",
      "postCode": "530000",
      "districtSeq": 450100,
      "code": "0",
      "sort": 1
    },
    {
      "regionId": 343,
      "regionName": "崇左市",
      "parentId": 21,
      "parentIds": ",0,5000,21,343,",
      "type": 101,
      "remark": "城市",
      "jianpin": "CZU",
      "postCode": "532200",
      "districtSeq": 451400,
      "code": "0",
      "sort": 1
    },
    {
      "regionId": 344,
      "regionName": "来宾市",
      "parentId": 21,
      "parentIds": ",0,5000,21,344,",
      "type": 101,
      "remark": "城市",
      "jianpin": "LBI",
      "postCode": "546100",
      "districtSeq": 451300,
      "code": "0",
      "sort": 1
    },
    {
      "regionId": 345,
      "regionName": "柳州市",
      "parentId": 21,
      "parentIds": ",0,5000,21,345,",
      "type": 101,
      "remark": "城市",
      "jianpin": "LZH",
      "postCode": "545000",
      "districtSeq": 450200,
      "code": "0",
      "sort": 1
    },
    {
      "regionId": 346,
      "regionName": "桂林市",
      "parentId": 21,
      "parentIds": ",0,5000,21,346,",
      "type": 101,
      "remark": "城市",
      "jianpin": "KWL",
      "postCode": "541000",
      "districtSeq": 450300,
      "code": "0",
      "sort": 1
    },
    {
      "regionId": 347,
      "regionName": "梧州市",
      "parentId": 21,
      "parentIds": ",0,5000,21,347,",
      "type": 101,
      "remark": "城市",
      "jianpin": "WUZ",
      "postCode": "543000",
      "districtSeq": 450400,
      "code": "0",
      "sort": 1
    },
    {
      "regionId": 348,
      "regionName": "贺州市",
      "parentId": 21,
      "parentIds": ",0,5000,21,348,",
      "type": 101,
      "remark": "城市",
      "jianpin": "HZU",
      "postCode": "542800",
      "districtSeq": 451100,
      "code": "0",
      "sort": 1
    },
    {
      "regionId": 349,
      "regionName": "贵港市",
      "parentId": 21,
      "parentIds": ",0,5000,21,349,",
      "type": 101,
      "remark": "城市",
      "jianpin": "GUG",
      "postCode": "537000",
      "districtSeq": 450800,
      "code": "0",
      "sort": 1
    },
    {
      "regionId": 350,
      "regionName": "玉林市",
      "parentId": 21,
      "parentIds": ",0,5000,21,350,",
      "type": 101,
      "remark": "城市",
      "jianpin": "YUL",
      "postCode": "537000",
      "districtSeq": 450900,
      "code": "0",
      "sort": 1
    },
    {
      "regionId": 351,
      "regionName": "百色市",
      "parentId": 21,
      "parentIds": ",0,5000,21,351,",
      "type": 101,
      "remark": "城市",
      "jianpin": "BSE",
      "postCode": "533000",
      "districtSeq": 451000,
      "code": "0",
      "sort": 1
    },
    {
      "regionId": 352,
      "regionName": "钦州市",
      "parentId": 21,
      "parentIds": ",0,5000,21,352,",
      "type": 101,
      "remark": "城市",
      "jianpin": "QZH",
      "postCode": "535000",
      "districtSeq": 450700,
      "code": "0",
      "sort": 1
    },
    {
      "regionId": 353,
      "regionName": "河池市",
      "parentId": 21,
      "parentIds": ",0,5000,21,353,",
      "type": 101,
      "remark": "城市",
      "jianpin": "HCI",
      "postCode": "547000",
      "districtSeq": 451200,
      "code": "0",
      "sort": 1
    },
    {
      "regionId": 354,
      "regionName": "北海市",
      "parentId": 21,
      "parentIds": ",0,5000,21,354,",
      "type": 101,
      "remark": "城市",
      "jianpin": "BHY",
      "postCode": "536000",
      "districtSeq": 450500,
      "code": "0",
      "sort": 1
    },
    {
      "regionId": 355,
      "regionName": "拉萨市",
      "parentId": 31,
      "parentIds": ",0,5000,31,355,",
      "type": 101,
      "remark": "城市",
      "jianpin": "LXA",
      "postCode": "850000",
      "districtSeq": 540100,
      "code": "0",
      "sort": 1
    },
    {
      "regionId": 360,
      "regionName": "那曲地区",
      "parentId": 31,
      "parentIds": ",0,5000,31,360,",
      "type": 101,
      "remark": "城市",
      "jianpin": "NAD",
      "postCode": "852000",
      "districtSeq": 542400,
      "code": "0",
      "sort": 1
    },
    {
      "regionId": 361,
      "regionName": "阿里地区",
      "parentId": 31,
      "parentIds": ",0,5000,31,361,",
      "type": 101,
      "remark": "城市",
      "jianpin": "NGD",
      "postCode": "859000",
      "districtSeq": 542500,
      "code": "0",
      "sort": 1
    },
    {
      "regionId": 362,
      "regionName": "银川市",
      "parentId": 26,
      "parentIds": ",0,5000,26,362,",
      "type": 101,
      "remark": "城市",
      "jianpin": "INC",
      "postCode": "750000",
      "districtSeq": 640100,
      "code": "0",
      "sort": 1
    },
    {
      "regionId": 363,
      "regionName": "石嘴山市",
      "parentId": 26,
      "parentIds": ",0,5000,26,363,",
      "type": 101,
      "remark": "城市",
      "jianpin": "SZUS",
      "postCode": "753000",
      "districtSeq": 640200,
      "code": "0",
      "sort": 1
    },
    {
      "regionId": 364,
      "regionName": "吴忠市",
      "parentId": 26,
      "parentIds": ",0,5000,26,364,",
      "type": 101,
      "remark": "城市",
      "jianpin": "WZS",
      "postCode": "751100",
      "districtSeq": 640300,
      "code": "0",
      "sort": 1
    },
    {
      "regionId": 365,
      "regionName": "固原市",
      "parentId": 26,
      "parentIds": ",0,5000,26,365,",
      "type": 101,
      "remark": "城市",
      "jianpin": "GYA",
      "postCode": "756000",
      "districtSeq": 640400,
      "code": "0",
      "sort": 1
    },
    {
      "regionId": 366,
      "regionName": "中卫市",
      "parentId": 26,
      "parentIds": ",0,5000,26,366,",
      "type": 101,
      "remark": "城市",
      "jianpin": "ZWE",
      "postCode": "755000",
      "districtSeq": 640500,
      "code": "0",
      "sort": 1
    },
    {
      "regionId": 367,
      "regionName": "塔城地区",
      "parentId": 24,
      "parentIds": ",0,5000,24,367,",
      "type": 101,
      "remark": "城市",
      "jianpin": "TCD",
      "postCode": "834700",
      "districtSeq": 654200,
      "code": "0",
      "sort": 1
    },
    {
      "regionId": 369,
      "regionName": "和田地区",
      "parentId": 24,
      "parentIds": ",0,5000,24,369,",
      "type": 101,
      "remark": "城市",
      "jianpin": "HOD",
      "postCode": "848000",
      "districtSeq": 653200,
      "code": "0",
      "sort": 1
    },
    {
      "regionId": 370,
      "regionName": "阿勒泰地区",
      "parentId": 24,
      "parentIds": ",0,5000,24,370,",
      "type": 101,
      "remark": "城市",
      "jianpin": "ALD",
      "postCode": "836000",
      "districtSeq": 654300,
      "code": "0",
      "sort": 1
    },
    {
      "regionId": 371,
      "regionName": "克孜勒苏柯尔克孜自治州",
      "parentId": 24,
      "parentIds": ",0,5000,24,371,",
      "type": 101,
      "remark": "城市",
      "jianpin": "KIZ",
      "postCode": "845350",
      "districtSeq": 653000,
      "code": "0",
      "sort": 1
    },
    {
      "regionId": 372,
      "regionName": "博尔塔拉蒙古自治州",
      "parentId": 24,
      "parentIds": ",0,5000,24,372,",
      "type": 101,
      "remark": "城市",
      "jianpin": "BOR",
      "postCode": "833400",
      "districtSeq": 652700,
      "code": "0",
      "sort": 1
    },
    {
      "regionId": 373,
      "regionName": "克拉玛依市",
      "parentId": 24,
      "parentIds": ",0,5000,24,373,",
      "type": 101,
      "remark": "城市",
      "jianpin": "KAR",
      "postCode": "834000",
      "districtSeq": 650200,
      "code": "0",
      "sort": 1
    },
    {
      "regionId": 374,
      "regionName": "乌鲁木齐市",
      "parentId": 24,
      "parentIds": ",0,5000,24,374,",
      "type": 101,
      "remark": "城市",
      "jianpin": "URC",
      "postCode": "830000",
      "districtSeq": 650100,
      "code": "0",
      "sort": 1
    },
    {
      "regionId": 375,
      "regionName": "石河子市",
      "parentId": 24,
      "parentIds": ",0,5000,24,375,",
      "type": 101,
      "remark": "城市",
      "jianpin": "SHZ",
      "postCode": "832000",
      "districtSeq": 659001,
      "code": "0",
      "sort": 1
    },
    {
      "regionId": 376,
      "regionName": "昌吉回族自治州",
      "parentId": 24,
      "parentIds": ",0,5000,24,376,",
      "type": 101,
      "remark": "城市",
      "jianpin": "CJZ",
      "postCode": "831100",
      "districtSeq": 652300,
      "code": "0",
      "sort": 1
    },
    {
      "regionId": 377,
      "regionName": "五家渠市",
      "parentId": 24,
      "parentIds": ",0,5000,24,377,",
      "type": 101,
      "remark": "城市",
      "jianpin": "WJJ",
      "postCode": "831300",
      "districtSeq": 659004,
      "code": "0",
      "sort": 1
    },
    {
      "regionId": 379,
      "regionName": "巴音郭楞蒙古自治州",
      "parentId": 24,
      "parentIds": ",0,5000,24,379,",
      "type": 101,
      "remark": "城市",
      "jianpin": "BYGLMGZZ",
      "postCode": "841000",
      "districtSeq": 652800,
      "code": "0",
      "sort": 1
    },
    {
      "regionId": 380,
      "regionName": "阿克苏地区",
      "parentId": 24,
      "parentIds": ",0,5000,24,380,",
      "type": 101,
      "remark": "城市",
      "jianpin": "AKD",
      "postCode": "843000",
      "districtSeq": 652900,
      "code": "0",
      "sort": 1
    },
    {
      "regionId": 381,
      "regionName": "阿拉尔市",
      "parentId": 24,
      "parentIds": ",0,5000,24,381,",
      "type": 101,
      "remark": "城市",
      "jianpin": "ALE",
      "postCode": "843300",
      "districtSeq": 659002,
      "code": "0",
      "sort": 1
    },
    {
      "regionId": 382,
      "regionName": "喀什地区",
      "parentId": 24,
      "parentIds": ",0,5000,24,382,",
      "type": 101,
      "remark": "城市",
      "jianpin": "KSI",
      "postCode": "844000",
      "districtSeq": 653100,
      "code": "0",
      "sort": 1
    },
    {
      "regionId": 383,
      "regionName": "图木舒克市",
      "parentId": 24,
      "parentIds": ",0,5000,24,383,",
      "type": 101,
      "remark": "城市",
      "jianpin": "TMSKS",
      "postCode": "844000",
      "districtSeq": 659003,
      "code": "0",
      "sort": 1
    },
    {
      "regionId": 384,
      "regionName": "伊犁哈萨克自治州",
      "parentId": 24,
      "parentIds": ",0,5000,24,384,",
      "type": 101,
      "remark": "城市",
      "jianpin": "ILD",
      "postCode": "835000",
      "districtSeq": 654000,
      "code": "0",
      "sort": 1
    },
    {
      "regionId": 385,
      "regionName": "呼伦贝尔市",
      "parentId": 5,
      "parentIds": ",0,5000,5,385,",
      "type": 101,
      "remark": "城市",
      "jianpin": "HLBES",
      "postCode": "21000",
      "districtSeq": 150700,
      "code": "0",
      "sort": 1
    },
    {
      "regionId": 386,
      "regionName": "呼和浩特市",
      "parentId": 5,
      "parentIds": ",0,5000,5,386,",
      "type": 101,
      "remark": "城市",
      "jianpin": "Hhht",
      "postCode": "10000",
      "districtSeq": 150100,
      "code": "0",
      "sort": 1
    },
    {
      "regionId": 387,
      "regionName": "包头市",
      "parentId": 5,
      "parentIds": ",0,5000,5,387,",
      "type": 101,
      "remark": "城市",
      "jianpin": "BTS",
      "postCode": "14000",
      "districtSeq": 150200,
      "code": "0",
      "sort": 1
    },
    {
      "regionId": 388,
      "regionName": "乌海市",
      "parentId": 5,
      "parentIds": ",0,5000,5,388,",
      "type": 101,
      "remark": "城市",
      "jianpin": "WHM",
      "postCode": "16000",
      "districtSeq": 150300,
      "code": "0",
      "sort": 1
    },
    {
      "regionId": 389,
      "regionName": "乌兰察布市",
      "parentId": 5,
      "parentIds": ",0,5000,5,389,",
      "type": 101,
      "remark": "城市",
      "jianpin": "WLCBS",
      "postCode": "12000",
      "districtSeq": 150900,
      "code": "0",
      "sort": 1
    },
    {
      "regionId": 390,
      "regionName": "通辽市",
      "parentId": 5,
      "parentIds": ",0,5000,5,390,",
      "type": 101,
      "remark": "城市",
      "jianpin": "TL",
      "postCode": "28000",
      "districtSeq": 150500,
      "code": "0",
      "sort": 1
    },
    {
      "regionId": 391,
      "regionName": "赤峰市",
      "parentId": 5,
      "parentIds": ",0,5000,5,391,",
      "type": 101,
      "remark": "城市",
      "jianpin": "CFS",
      "postCode": "24000",
      "districtSeq": 150400,
      "code": "0",
      "sort": 1
    },
    {
      "regionId": 392,
      "regionName": "鄂尔多斯市",
      "parentId": 5,
      "parentIds": ",0,5000,5,392,",
      "type": 101,
      "remark": "城市",
      "jianpin": "EEDSS",
      "postCode": "17000",
      "districtSeq": 150600,
      "code": "0",
      "sort": 1
    },
    {
      "regionId": 393,
      "regionName": "巴彦淖尔市",
      "parentId": 5,
      "parentIds": ",0,5000,5,393,",
      "type": 101,
      "remark": "城市",
      "jianpin": "BYZES",
      "postCode": "15000",
      "districtSeq": 150800,
      "code": "0",
      "sort": 1
    },
    {
      "regionId": 394,
      "regionName": "锡林郭勒盟",
      "parentId": 5,
      "parentIds": ",0,5000,5,394,",
      "type": 101,
      "remark": "城市",
      "jianpin": "XGO",
      "postCode": "26000",
      "districtSeq": 152500,
      "code": "0",
      "sort": 1
    },
    {
      "regionId": 395,
      "regionName": "兴安盟",
      "parentId": 5,
      "parentIds": ",0,5000,5,395,",
      "type": 101,
      "remark": "城市",
      "jianpin": "HIN",
      "postCode": "10010",
      "districtSeq": 152200,
      "code": "0",
      "sort": 1
    },
    {
      "regionId": 396,
      "regionName": "阿拉善盟",
      "parentId": 5,
      "parentIds": ",0,5000,5,396,",
      "type": 101,
      "remark": "城市",
      "jianpin": "ALM",
      "postCode": "750306",
      "districtSeq": 152900,
      "code": "0",
      "sort": 1
    },
    {
      "regionId": 404,
      "regionName": "澳门特别行政区-市",
      "parentId": 33,
      "parentIds": ",0,5000,33,404,",
      "type": 101,
      "remark": "城市",
      "jianpin": "AMT",
      "postCode": "0",
      "districtSeq": 821000,
      "code": "0",
      "sort": 1
    },
    {
      "regionId": 405,
      "regionName": "香港特别行政区-市",
      "parentId": 34,
      "parentIds": ",0,5000,34,405,",
      "type": 101,
      "remark": "城市",
      "jianpin": "XG",
      "postCode": "0",
      "districtSeq": 810100,
      "code": "0",
      "sort": 1
    },
    {
      "regionId": 1257,
      "regionName": "义乌市",
      "parentId": 11,
      "parentIds": ",0,5000,11,1257,",
      "type": 101,
      "remark": "城市",
      "jianpin": "DGY",
      "postCode": "322000",
      "districtSeq": 330782,
      "code": "0",
      "sort": 1
    },
    {
      "regionId": 2519,
      "regionName": "铜仁市",
      "parentId": 29,
      "parentIds": ",0,5000,29,2519,",
      "type": 101,
      "remark": "区域",
      "jianpin": "",
      "postCode": "554300",
      "districtSeq": 520600,
      "code": "0",
      "sort": 1
    },
    {
      "regionId": 2529,
      "regionName": "毕节市",
      "parentId": 29,
      "parentIds": ",0,5000,29,2529,",
      "type": 101,
      "remark": "区域",
      "jianpin": "",
      "postCode": "551700",
      "districtSeq": 520500,
      "code": "0",
      "sort": 1
    },
    {
      "regionId": 2949,
      "regionName": "日喀则市",
      "parentId": 31,
      "parentIds": ",0,5000,31,2949,",
      "type": 101,
      "remark": "区域",
      "jianpin": "",
      "postCode": "857000",
      "districtSeq": 540200,
      "code": "0",
      "sort": 1
    },
    {
      "regionId": 3042,
      "regionName": "哈密市",
      "parentId": 24,
      "parentIds": ",0,5000,24,3042,",
      "type": 101,
      "remark": "区域",
      "jianpin": "",
      "postCode": "0",
      "districtSeq": 650500,
      "code": "0",
      "sort": 1
    },
    {
      "regionId": 3086,
      "regionName": "吐鲁番市",
      "parentId": 24,
      "parentIds": ",0,5000,24,3086,",
      "type": 101,
      "remark": "区域",
      "jianpin": "",
      "postCode": "838000",
      "districtSeq": 650400,
      "code": "0",
      "sort": 1
    },
    {
      "regionId": 4081,
      "regionName": "石狮市",
      "parentId": 13,
      "parentIds": ",0,5000,13,4081,",
      "type": 101,
      "remark": "城市",
      "jianpin": "SSS",
      "postCode": "362700",
      "districtSeq": 350581,
      "code": "0",
      "sort": 1
    },
    {
      "regionId": 4118,
      "regionName": "巴塞罗那",
      "parentId": 8545,
      "parentIds": ",0,8545,4118,",
      "type": 101,
      "remark": "城市",
      "jianpin": "BSLN",
      "postCode": "0",
      "districtSeq": 0,
      "code": "0",
      "sort": 1
    },
    {
      "regionId": 4119,
      "regionName": "米兰",
      "parentId": 8546,
      "parentIds": ",0,8546,4119,",
      "type": 101,
      "remark": "城市",
      "jianpin": "MLAN",
      "postCode": "0",
      "districtSeq": 0,
      "code": "0",
      "sort": 1
    },
    {
      "regionId": 4180,
      "regionName": "阳江市",
      "parentId": 19,
      "parentIds": ",0,5000,19,4180,",
      "type": 101,
      "remark": "城市",
      "jianpin": "YAJAS",
      "postCode": "529500",
      "districtSeq": 441700,
      "code": "0",
      "sort": 1
    },
    {
      "regionId": 6295,
      "regionName": "泉州市",
      "parentId": 13,
      "parentIds": ",0,5000,13,6295,",
      "type": 101,
      "remark": "城市",
      "jianpin": "",
      "postCode": "362000",
      "districtSeq": 350500,
      "code": "0",
      "sort": 1
    },
    {
      "regionId": 6893,
      "regionName": "襄阳市",
      "parentId": 17,
      "parentIds": ",0,5000,17,6893,",
      "type": 101,
      "remark": "城市",
      "jianpin": "",
      "postCode": "441000",
      "districtSeq": 420600,
      "code": "0",
      "sort": 1
    },
    {
      "regionId": 7967,
      "regionName": "怒江傈僳族自治州",
      "parentId": 30,
      "parentIds": ",0,5000,30,7967,",
      "type": 101,
      "remark": "城市",
      "jianpin": "",
      "postCode": "673100",
      "districtSeq": 533300,
      "code": "0",
      "sort": 1
    },
    {
      "regionId": 8006,
      "regionName": "昌都市",
      "parentId": 31,
      "parentIds": ",0,5000,31,8006,",
      "type": 101,
      "remark": "城市",
      "jianpin": "",
      "postCode": "854000",
      "districtSeq": 540300,
      "code": "0",
      "sort": 1
    },
    {
      "regionId": 8018,
      "regionName": "林芝市",
      "parentId": 31,
      "parentIds": ",0,5000,31,8018,",
      "type": 101,
      "remark": "城市",
      "jianpin": "",
      "postCode": "860000",
      "districtSeq": 540400,
      "code": "0",
      "sort": 1
    },
    {
      "regionId": 8026,
      "regionName": "山南市",
      "parentId": 31,
      "parentIds": ",0,5000,31,8026,",
      "type": 101,
      "remark": "城市",
      "jianpin": "",
      "postCode": "0",
      "districtSeq": 540500,
      "code": "0",
      "sort": 1
    },
    {
      "regionId": 8311,
      "regionName": "海东市",
      "parentId": 25,
      "parentIds": ",0,5000,25,8311,",
      "type": 101,
      "remark": "城市",
      "jianpin": "",
      "postCode": "814000",
      "districtSeq": 630200,
      "code": "0",
      "sort": 1
    },
    {
      "regionId": 8515,
      "regionName": "氹仔岛",
      "parentId": 33,
      "parentIds": ",0,5000,33,8515,",
      "type": 101,
      "remark": "城市",
      "jianpin": "",
      "postCode": "0",
      "districtSeq": 820200,
      "code": "0",
      "sort": 1
    },
    {
      "regionId": 8517,
      "regionName": "路环岛",
      "parentId": 33,
      "parentIds": ",0,5000,33,8517,",
      "type": 101,
      "remark": "城市",
      "jianpin": "",
      "postCode": "0",
      "districtSeq": 820300,
      "code": "0",
      "sort": 1
    },
    {
      "regionId": 8557,
      "regionName": "金边-直辖市",
      "parentId": 8556,
      "parentIds": ",0,8555,8556,8557,",
      "type": 101,
      "remark": "城市",
      "jianpin": "jinb",
      "postCode": "12203",
      "districtSeq": 0,
      "code": "0",
      "sort": 1
    }
  ],
  "ServerTime": "2018-03-01 15:28:09"
}
